{"type":"FeatureCollection","features":[{"type":"Feature","properties":{"nombre":"océano Ártico","nombre_en":"Arctic Ocean","rank":0,"tipo":"ocean"},"geometry":{"type":"Point","coordinates":[-0.0,80.604]}},{"type":"Feature","properties":{"nombre":"océano Antártico","nombre_en":"Southern Ocean","rank":0,"tipo":"ocean"},"geometry":{"type":"Point","coordinates":[-0.0,-66.396]}},{"type":"Feature","properties":{"nombre":"océano Atlántico","nombre_en":"Atlantic Ocean","rank":0,"tipo":"ocean"},"geometry":{"type":"Point","coordinates":[-37.482,34.23]}},{"type":"Feature","properties":{"nombre":"océano Pacífico","nombre_en":"Pacific Ocean","rank":0,"tipo":"ocean"},"geometry":{"type":"Point","coordinates":[-128.538,29.146]}},{"type":"Feature","properties":{"nombre":"océano Pacífico","nombre_en":"Pacific Ocean","rank":0,"tipo":"ocean"},"geometry":{"type":"Point","coordinates":[-124.039,-29.101]}},{"type":"Feature","properties":{"nombre":"océano Índico","nombre_en":"Indian Ocean","rank":0,"tipo":"ocean"},"geometry":{"type":"Point","coordinates":[92.841,-25.051]}},{"type":"Feature","properties":{"nombre":"océano Atlántico","nombre_en":"Atlantic Ocean","rank":0,"tipo":"ocean"},"geometry":{"type":"Point","coordinates":[-24.729,-30.25]}},{"type":"Feature","properties":{"nombre":"mar Negro","nombre_en":"Black Sea","rank":1,"tipo":"sea"},"geometry":{"type":"Point","coordinates":[34.624,44.069]}},{"type":"Feature","properties":{"nombre":"mar de Filipinas","nombre_en":"Philippine Sea","rank":1,"tipo":"sea"},"geometry":{"type":"Point","coordinates":[133.564,18.873]}},{"type":"Feature","properties":{"nombre":"Gran barrera de coral","nombre_en":"Great Barrier Reef","rank":4,"tipo":"reef"},"geometry":{"type":"Point","coordinates":[148.104,-16.997]}},{"type":"Feature","properties":{"nombre":"mar de Tasmania","nombre_en":"Tasman Sea","rank":1,"tipo":"sea"},"geometry":{"type":"Point","coordinates":[160.807,-40.334]}},{"type":"Feature","properties":{"nombre":"Bahía de Bengala","nombre_en":"Bay of Bengal","rank":1,"tipo":"bay"},"geometry":{"type":"Point","coordinates":[87.464,14.557]}},{"type":"Feature","properties":{"nombre":"mar de China Meridional","nombre_en":"South China Sea","rank":1,"tipo":"sea"},"geometry":{"type":"Point","coordinates":[112.308,10.27]}},{"type":"Feature","properties":{"nombre":"mar Arábigo","nombre_en":"Arabian Sea","rank":1,"tipo":"sea"},"geometry":{"type":"Point","coordinates":[62.689,12.461]}},{"type":"Feature","properties":{"nombre":"mar de Beaufort","nombre_en":"Beaufort Sea","rank":1,"tipo":"sea"},"geometry":{"type":"Point","coordinates":[-139.536,72.792]}},{"type":"Feature","properties":{"nombre":"mar Caribe","nombre_en":"Caribbean Sea","rank":1,"tipo":"sea"},"geometry":{"type":"Point","coordinates":[-73.779,15.591]}},{"type":"Feature","properties":{"nombre":"Golfo de México","nombre_en":"Gulf of Mexico","rank":1,"tipo":"gulf"},"geometry":{"type":"Point","coordinates":[-88.877,25.747]}},{"type":"Feature","properties":{"nombre":"mar de Labrador","nombre_en":"Labrador Sea","rank":1,"tipo":"sea"},"geometry":{"type":"Point","coordinates":[-54.356,53.89]}},{"type":"Feature","properties":{"nombre":"Bahía de Hudson","nombre_en":"Hudson Bay","rank":1,"tipo":"bay"},"geometry":{"type":"Point","coordinates":[-85.738,60.362]}},{"type":"Feature","properties":{"nombre":"mar Caspio","nombre_en":"Caspian Sea","rank":1,"tipo":"sea"},"geometry":{"type":"Point","coordinates":[50.365,41.862]}},{"type":"Feature","properties":{"nombre":"bahía de Baffin","nombre_en":"Baffin Bay","rank":1,"tipo":"bay"},"geometry":{"type":"Point","coordinates":[-68.162,74.284]}},{"type":"Feature","properties":{"nombre":"Golfo de Alaska","nombre_en":"Gulf of Alaska","rank":1,"tipo":"gulf"},"geometry":{"type":"Point","coordinates":[-149.987,57.359]}},{"type":"Feature","properties":{"nombre":"mar Rojo","nombre_en":"Red Sea","rank":1,"tipo":"sea"},"geometry":{"type":"Point","coordinates":[38.659,20.296]}},{"type":"Feature","properties":{"nombre":"mar de Ojotsk","nombre_en":"Sea of Okhotsk","rank":1,"tipo":"sea"},"geometry":{"type":"Point","coordinates":[147.179,51.525]}},{"type":"Feature","properties":{"nombre":"mar de Weddell","nombre_en":"Weddell Sea","rank":1,"tipo":"sea"},"geometry":{"type":"Point","coordinates":[-47.369,-77.296]}},{"type":"Feature","properties":{"nombre":"golfo Pérsico","nombre_en":"Persian Gulf","rank":1,"tipo":"gulf"},"geometry":{"type":"Point","coordinates":[52.463,27.24]}},{"type":"Feature","properties":{"nombre":"mar de Célebes","nombre_en":"Celebes Sea","rank":2,"tipo":"sea"},"geometry":{"type":"Point","coordinates":[121.346,4.335]}},{"type":"Feature","properties":{"nombre":"mar de Sulú","nombre_en":"Sulu Sea","rank":2,"tipo":"sea"},"geometry":{"type":"Point","coordinates":[120.082,8.945]}},{"type":"Feature","properties":{"nombre":"mar de Noruega","nombre_en":"Norwegian Sea","rank":2,"tipo":"sea"},"geometry":{"type":"Point","coordinates":[6.873,68.525]}},{"type":"Feature","properties":{"nombre":"mar de Groenlandia","nombre_en":"Greenland Sea","rank":2,"tipo":"sea"},"geometry":{"type":"Point","coordinates":[-7.034,74.273]}},{"type":"Feature","properties":{"nombre":"mar de Banda","nombre_en":"Banda Sea","rank":2,"tipo":"sea"},"geometry":{"type":"Point","coordinates":[126.684,-4.812]}},{"type":"Feature","properties":{"nombre":"Estrecho de Luzón","nombre_en":"Luzon Strait","rank":2,"tipo":"strait"},"geometry":{"type":"Point","coordinates":[120.868,22.059]}},{"type":"Feature","properties":{"nombre":"Golfo de Vizcaya","nombre_en":"Bay of Biscay","rank":2,"tipo":"bay"},"geometry":{"type":"Point","coordinates":[-4.274,45.897]}},{"type":"Feature","properties":{"nombre":"Canal de Mozambique","nombre_en":"Mozambique Channel","rank":2,"tipo":"channel"},"geometry":{"type":"Point","coordinates":[40.924,-18.616]}},{"type":"Feature","properties":{"nombre":"Golfo de Guinea","nombre_en":"Gulf of Guinea","rank":2,"tipo":"gulf"},"geometry":{"type":"Point","coordinates":[1.237,2.551]}},{"type":"Feature","properties":{"nombre":"mar del Scotia","nombre_en":"Scotia Sea","rank":2,"tipo":"sea"},"geometry":{"type":"Point","coordinates":[-54.792,-61.171]}},{"type":"Feature","properties":{"nombre":"Mar Báltico","nombre_en":"Baltic Sea","rank":2,"tipo":"sea"},"geometry":{"type":"Point","coordinates":[17.769,56.874]}},{"type":"Feature","properties":{"nombre":"Mar de Barents","nombre_en":"Barents Sea","rank":2,"tipo":"sea"},"geometry":{"type":"Point","coordinates":[42.982,74.331]}},{"type":"Feature","properties":{"nombre":"mar del Norte","nombre_en":"North Sea","rank":2,"tipo":"sea"},"geometry":{"type":"Point","coordinates":[2.825,55.8]}},{"type":"Feature","properties":{"nombre":"Canal de Bristol","nombre_en":"Bristol Channel","rank":4,"tipo":"channel"},"geometry":{"type":"Point","coordinates":[-4.418,50.931]}},{"type":"Feature","properties":{"nombre":"mar de las Hébridas","nombre_en":"Sea of the Hebrides","rank":4,"tipo":"sea"},"geometry":{"type":"Point","coordinates":[-6.415,56.574]}},{"type":"Feature","properties":{"nombre":"mar de Irlanda","nombre_en":"Irish Sea","rank":2,"tipo":"sea"},"geometry":{"type":"Point","coordinates":[-4.686,53.322]}},{"type":"Feature","properties":{"nombre":"mar de Java","nombre_en":"Java Sea","rank":2,"tipo":"sea"},"geometry":{"type":"Point","coordinates":[112.036,-5.148]}},{"type":"Feature","properties":{"nombre":"mar de Andamán","nombre_en":"Andaman Sea","rank":2,"tipo":"sea"},"geometry":{"type":"Point","coordinates":[95.538,11.041]}},{"type":"Feature","properties":{"nombre":"mar Amarillo","nombre_en":"Yellow Sea","rank":2,"tipo":"sea"},"geometry":{"type":"Point","coordinates":[123.071,35.985]}},{"type":"Feature","properties":{"nombre":"mar de China Oriental","nombre_en":"East China Sea","rank":2,"tipo":"sea"},"geometry":{"type":"Point","coordinates":[124.997,28.464]}},{"type":"Feature","properties":{"nombre":"mar de Chukotka.","nombre_en":"Chukchi Sea","rank":2,"tipo":"sea"},"geometry":{"type":"Point","coordinates":[-168.235,68.535]}},{"type":"Feature","properties":{"nombre":"Golfo de Campeche","nombre_en":"Bay of Campeche","rank":2,"tipo":"bay"},"geometry":{"type":"Point","coordinates":[-93.774,19.588]}},{"type":"Feature","properties":{"nombre":"mar de Arafura","nombre_en":"Arafura Sea","rank":2,"tipo":"sea"},"geometry":{"type":"Point","coordinates":[136.471,-7.74]}},{"type":"Feature","properties":{"nombre":"mar de Timor","nombre_en":"Timor Sea","rank":2,"tipo":"sea"},"geometry":{"type":"Point","coordinates":[127.808,-10.987]}},{"type":"Feature","properties":{"nombre":"Golfo de Tailandia","nombre_en":"Gulf of Thailand","rank":2,"tipo":"gulf"},"geometry":{"type":"Point","coordinates":[102.128,9.863]}},{"type":"Feature","properties":{"nombre":"mar de Laquedivas","nombre_en":"Laccadive Sea","rank":2,"tipo":"sea"},"geometry":{"type":"Point","coordinates":[75.796,6.938]}},{"type":"Feature","properties":{"nombre":"mar de Bellingshausen","nombre_en":"Bellingshausen Sea","rank":2,"tipo":"sea"},"geometry":{"type":"Point","coordinates":[-82.614,-71.399]}},{"type":"Feature","properties":{"nombre":"mar de Amundsen","nombre_en":"Amundsen Sea","rank":2,"tipo":"sea"},"geometry":{"type":"Point","coordinates":[-106.591,-73.716]}},{"type":"Feature","properties":{"nombre":"Estrecho de Davis","nombre_en":"Davis Strait","rank":2,"tipo":"strait"},"geometry":{"type":"Point","coordinates":[-57.043,65.068]}},{"type":"Feature","properties":{"nombre":"mar de Kara","nombre_en":"Kara Sea","rank":2,"tipo":"sea"},"geometry":{"type":"Point","coordinates":[78.807,74.797]}},{"type":"Feature","properties":{"nombre":"mar de Láptev","nombre_en":"Laptev Sea","rank":2,"tipo":"sea"},"geometry":{"type":"Point","coordinates":[117.516,76.005]}},{"type":"Feature","properties":{"nombre":"Pasaje de Drake","nombre_en":"Drake Passage","rank":2,"tipo":"channel"},"geometry":{"type":"Point","coordinates":[-64.037,-64.55]}},{"type":"Feature","properties":{"nombre":"Gran Bahía Australiana","nombre_en":"Great Australian Bight","rank":3,"tipo":"gulf"},"geometry":{"type":"Point","coordinates":[132.131,-37.456]}},{"type":"Feature","properties":{"nombre":"Golfo de Adén","nombre_en":"Gulf of Aden","rank":3,"tipo":"gulf"},"geometry":{"type":"Point","coordinates":[46.895,12.82]}},{"type":"Feature","properties":{"nombre":"Golfo de Omán","nombre_en":"Gulf of Oman","rank":3,"tipo":"gulf"},"geometry":{"type":"Point","coordinates":[58.852,24.37]}},{"type":"Feature","properties":{"nombre":"mar Tirreno","nombre_en":"Tyrrhenian Sea","rank":3,"tipo":"sea"},"geometry":{"type":"Point","coordinates":[12.556,40.911]}},{"type":"Feature","properties":{"nombre":"mar Blanco","nombre_en":"White Sea","rank":3,"tipo":"sea"},"geometry":{"type":"Point","coordinates":[38.192,66.243]}},{"type":"Feature","properties":{"nombre":"mar de Azov","nombre_en":"Sea of Azov","rank":5,"tipo":"sea"},"geometry":{"type":"Point","coordinates":[37.069,46.272]}},{"type":"Feature","properties":{"nombre":"Bahía James","nombre_en":"James Bay","rank":3,"tipo":"bay"},"geometry":{"type":"Point","coordinates":[-80.436,52.801]}},{"type":"Feature","properties":{"nombre":"Golfo de Carpentaria","nombre_en":"Gulf of Carpentaria","rank":3,"tipo":"gulf"},"geometry":{"type":"Point","coordinates":[138.667,-14.965]}},{"type":"Feature","properties":{"nombre":"Golfo de California","nombre_en":"Gulf of California","rank":3,"tipo":"gulf"},"geometry":{"type":"Point","coordinates":[-110.928,27.583]}},{"type":"Feature","properties":{"nombre":"Estrecho de Hudson","nombre_en":"Hudson Strait","rank":3,"tipo":"strait"},"geometry":{"type":"Point","coordinates":[-72.853,62.56]}},{"type":"Feature","properties":{"nombre":"Golfo de Finlandia","nombre_en":"Gulf of Finland","rank":4,"tipo":"gulf"},"geometry":{"type":"Point","coordinates":[26.556,59.874]}},{"type":"Feature","properties":{"nombre":"canal de la Mancha","nombre_en":"English Channel","rank":3,"tipo":"channel"},"geometry":{"type":"Point","coordinates":[-2.429,49.792]}},{"type":"Feature","properties":{"nombre":"Golfo de Honduras","nombre_en":"Gulf of Honduras","rank":3,"tipo":"gulf"},"geometry":{"type":"Point","coordinates":[-87.909,16.507]}},{"type":"Feature","properties":{"nombre":"Golfo de León","nombre_en":"Gulf of Lion","rank":4,"tipo":"gulf"},"geometry":{"type":"Point","coordinates":[4.224,42.777]}},{"type":"Feature","properties":{"nombre":"Golfo de Botnia","nombre_en":"Gulf of Bothnia","rank":3,"tipo":"gulf"},"geometry":{"type":"Point","coordinates":[21.252,62.767]}},{"type":"Feature","properties":{"nombre":"mar Adriático","nombre_en":"Adriatic Sea","rank":3,"tipo":"sea"},"geometry":{"type":"Point","coordinates":[16.112,42.757]}},{"type":"Feature","properties":{"nombre":"Estrecho de Florida","nombre_en":"Florida Strait","rank":4,"tipo":"strait"},"geometry":{"type":"Point","coordinates":[-80.597,24.834]}},{"type":"Feature","properties":{"nombre":"Bay of Plenty","nombre_en":"Bay of Plenty","rank":4,"tipo":"bay"},"geometry":{"type":"Point","coordinates":[177.022,-37.364]}},{"type":"Feature","properties":{"nombre":"paso del Noroeste","nombre_en":"Northwest Passage","rank":4,"tipo":"channel"},"geometry":{"type":"Point","coordinates":[-98.566,73.393]}},{"type":"Feature","properties":{"nombre":"Sound de la Reina Carlota","nombre_en":"Queen Charlotte Sound","rank":7,"tipo":"sound"},"geometry":{"type":"Point","coordinates":[-129.463,52.013]}},{"type":"Feature","properties":{"nombre":"mar Jónico","nombre_en":"Ionian Sea","rank":4,"tipo":"sea"},"geometry":{"type":"Point","coordinates":[19.141,38.488]}},{"type":"Feature","properties":{"nombre":"Golfo de San Lorenzo","nombre_en":"Gulf of Saint Lawrence","rank":4,"tipo":"gulf"},"geometry":{"type":"Point","coordinates":[-60.744,48.55]}},{"type":"Feature","properties":{"nombre":"mar de Molucas","nombre_en":"Molucca Sea","rank":4,"tipo":"sea"},"geometry":{"type":"Point","coordinates":[125.974,1.218]}},{"type":"Feature","properties":{"nombre":"mar de Bismarck","nombre_en":"Bismarck Sea","rank":4,"tipo":"sea"},"geometry":{"type":"Point","coordinates":[147.336,-3.684]}},{"type":"Feature","properties":{"nombre":"mar de Salomón","nombre_en":"Solomon Sea","rank":4,"tipo":"sea"},"geometry":{"type":"Point","coordinates":[154.534,-8.026]}},{"type":"Feature","properties":{"nombre":"Golfo de Tonkín","nombre_en":"Gulf of Tonkin","rank":4,"tipo":"gulf"},"geometry":{"type":"Point","coordinates":[107.859,19.904]}},{"type":"Feature","properties":{"nombre":"Bahía de Fundy","nombre_en":"Bay of Fundy","rank":4,"tipo":"bay"},"geometry":{"type":"Point","coordinates":[-65.277,45.047]}},{"type":"Feature","properties":{"nombre":"Río de la Plata","nombre_en":"Río de la Plata","rank":4,"tipo":"gulf"},"geometry":{"type":"Point","coordinates":[-56.73,-34.412]}},{"type":"Feature","properties":{"nombre":"Estrecho de Malaca","nombre_en":"Strait of Malacca","rank":4,"tipo":"strait"},"geometry":{"type":"Point","coordinates":[99.478,4.515]}},{"type":"Feature","properties":{"nombre":"Estrecho de Singapur","nombre_en":"Singapore Strait","rank":4,"tipo":"strait"},"geometry":{"type":"Point","coordinates":[103.932,1.336]}},{"type":"Feature","properties":{"nombre":"Estrecho de Macasar","nombre_en":"Makassar Strait","rank":4,"tipo":"strait"},"geometry":{"type":"Point","coordinates":[118.515,-2.016]}},{"type":"Feature","properties":{"nombre":"mar de Ceram","nombre_en":"Ceram Sea","rank":4,"tipo":"sea"},"geometry":{"type":"Point","coordinates":[129.908,-3.259]}},{"type":"Feature","properties":{"nombre":"mar interior de Seto","nombre_en":"Seto Inland Sea","rank":4,"tipo":"sea"},"geometry":{"type":"Point","coordinates":[133.138,33.832]}},{"type":"Feature","properties":{"nombre":"Estrecho de Taiwán","nombre_en":"Taiwan Strait","rank":4,"tipo":"strait"},"geometry":{"type":"Point","coordinates":[119.259,24.163]}},{"type":"Feature","properties":{"nombre":"Ensenada de Tikahtnu","nombre_en":"Tikahtnu Inlet","rank":4,"tipo":"bay"},"geometry":{"type":"Point","coordinates":[-151.625,60.194]}},{"type":"Feature","properties":{"nombre":"Bahía de Bristol","nombre_en":"Bristol Bay","rank":4,"tipo":"bay"},"geometry":{"type":"Point","coordinates":[-159.47,57.445]}},{"type":"Feature","properties":{"nombre":"Bahía Melville","nombre_en":"Melville Bay","rank":4,"tipo":"bay"},"geometry":{"type":"Point","coordinates":[-61.667,75.243]}},{"type":"Feature","properties":{"nombre":"Golfo de Maine","nombre_en":"Gulf of Maine","rank":4,"tipo":"gulf"},"geometry":{"type":"Point","coordinates":[-68.284,43.191]}},{"type":"Feature","properties":{"nombre":"bahía de Chesapeake","nombre_en":"Chesapeake Bay","rank":4,"tipo":"bay"},"geometry":{"type":"Point","coordinates":[-76.486,38.237]}},{"type":"Feature","properties":{"nombre":"Estrecho de Gibraltar","nombre_en":"Strait of Gibraltar","rank":4,"tipo":"strait"},"geometry":{"type":"Point","coordinates":[-5.833,35.798]}},{"type":"Feature","properties":{"nombre":"Golfo San Jorge","nombre_en":"San Jorge Gulf","rank":4,"tipo":"gulf"},"geometry":{"type":"Point","coordinates":[-66.627,-46.066]}},{"type":"Feature","properties":{"nombre":"mar Balear","nombre_en":"Balearic Sea","rank":4,"tipo":"sea"},"geometry":{"type":"Point","coordinates":[1.976,40.311]}},{"type":"Feature","properties":{"nombre":"mar Egeo","nombre_en":"Aegean Sea","rank":4,"tipo":"sea"},"geometry":{"type":"Point","coordinates":[25.406,38.753]}},{"type":"Feature","properties":{"nombre":"Golfo de Mannar","nombre_en":"Gulf of Mannar","rank":4,"tipo":"gulf"},"geometry":{"type":"Point","coordinates":[78.622,8.292]}},{"type":"Feature","properties":{"nombre":"Golfo de Shélijov","nombre_en":"Shelikhov Gulf","rank":4,"tipo":"gulf"},"geometry":{"type":"Point","coordinates":[159.783,60.236]}},{"type":"Feature","properties":{"nombre":"mar de Bohai","nombre_en":"Bohai Sea","rank":4,"tipo":"sea"},"geometry":{"type":"Point","coordinates":[119.915,39.05]}},{"type":"Feature","properties":{"nombre":"Golfo de Kutch","nombre_en":"Gulf of Kutch","rank":4,"tipo":"gulf"},"geometry":{"type":"Point","coordinates":[69.658,22.688]}},{"type":"Feature","properties":{"nombre":"Golfo de Panamá","nombre_en":"Gulf of Panama","rank":4,"tipo":"gulf"},"geometry":{"type":"Point","coordinates":[-79.113,8.26]}},{"type":"Feature","properties":{"nombre":"Golfo de Amundsen","nombre_en":"Amundsen Gulf","rank":4,"tipo":"gulf"},"geometry":{"type":"Point","coordinates":[-122.584,70.607]}},{"type":"Feature","properties":{"nombre":"Viscount Melville Sound","nombre_en":"Viscount Melville Sound","rank":4,"tipo":"sound"},"geometry":{"type":"Point","coordinates":[-110.149,73.851]}},{"type":"Feature","properties":{"nombre":"Bahía de Ungava","nombre_en":"Ungava Bay","rank":4,"tipo":"bay"},"geometry":{"type":"Point","coordinates":[-67.77,59.371]}},{"type":"Feature","properties":{"nombre":"Gran barrera de coral","nombre_en":"Great Barrier Reef","rank":4,"tipo":"reef"},"geometry":{"type":"Point","coordinates":[142.889,-10.377]}},{"type":"Feature","properties":{"nombre":"Canal de Yucatán","nombre_en":"Yucatán Channel","rank":5,"tipo":"channel"},"geometry":{"type":"Point","coordinates":[-86.929,21.507]}},{"type":"Feature","properties":{"nombre":"mar de Bering","nombre_en":"Bering Sea","rank":2,"tipo":"sea"},"geometry":{"type":"Point","coordinates":[-170.719,58.569]}},{"type":"Feature","properties":{"nombre":"mar de Siberia Oriental","nombre_en":"East Siberian Sea","rank":5,"tipo":"sea"},"geometry":{"type":"Point","coordinates":[159.185,73.004]}},{"type":"Feature","properties":{"nombre":"mar de Lincoln","nombre_en":"Lincoln Sea","rank":5,"tipo":"sea"},"geometry":{"type":"Point","coordinates":[-53.899,82.569]}},{"type":"Feature","properties":{"nombre":"Estrecho de Bass","nombre_en":"Bass Strait","rank":5,"tipo":"strait"},"geometry":{"type":"Point","coordinates":[146.499,-39.473]}},{"type":"Feature","properties":{"nombre":"Bahía Franklin","nombre_en":"Franklin Bay","rank":7,"tipo":"bay"},"geometry":{"type":"Point","coordinates":[-125.53,69.487]}},{"type":"Feature","properties":{"nombre":"Entrada Dixon","nombre_en":"Dixon Entrance","rank":5,"tipo":"channel"},"geometry":{"type":"Point","coordinates":[-132.368,54.383]}},{"type":"Feature","properties":{"nombre":"Estrecho de McClure","nombre_en":"M'Clure Strait","rank":5,"tipo":"strait"},"geometry":{"type":"Point","coordinates":[-119.517,74.874]}},{"type":"Feature","properties":{"nombre":"Boca Grande","nombre_en":"Boca Grande","rank":5,"tipo":"bay"},"geometry":{"type":"Point","coordinates":[-60.975,8.884]}},{"type":"Feature","properties":{"nombre":"Bahía de Marajó","nombre_en":"Marajó Bay","rank":7,"tipo":"bay"},"geometry":{"type":"Point","coordinates":[-48.912,-1.485]}},{"type":"Feature","properties":{"nombre":"Golfo San Matías","nombre_en":"San Matías Gulf","rank":5,"tipo":"gulf"},"geometry":{"type":"Point","coordinates":[-64.279,-41.583]}},{"type":"Feature","properties":{"nombre":"Golfo Corcovado","nombre_en":"Gulf of Corcovado","rank":5,"tipo":"gulf"},"geometry":{"type":"Point","coordinates":[-73.16,-43.491]}},{"type":"Feature","properties":{"nombre":"golfo de Wrigley","nombre_en":"Wrigley Gulf","rank":5,"tipo":"gulf"},"geometry":{"type":"Point","coordinates":[-129.911,-74.098]}},{"type":"Feature","properties":{"nombre":"Bahía Sulzberger","nombre_en":"Sulzberger Bay","rank":5,"tipo":"bay"},"geometry":{"type":"Point","coordinates":[-151.76,-76.959]}},{"type":"Feature","properties":{"nombre":"entrada Ronne","nombre_en":"Ronne Entrance","rank":5,"tipo":"channel"},"geometry":{"type":"Point","coordinates":[-74.731,-72.39]}},{"type":"Feature","properties":{"nombre":"estrecho de Bransfield","nombre_en":"Bransfield Strait","rank":5,"tipo":"strait"},"geometry":{"type":"Point","coordinates":[-58.994,-63.158]}},{"type":"Feature","properties":{"nombre":"Estrecho de McMurdo","nombre_en":"McMurdo Sound","rank":5,"tipo":"sound"},"geometry":{"type":"Point","coordinates":[165.385,-75.626]}},{"type":"Feature","properties":{"nombre":"Bahía de São Marcos","nombre_en":"Baía de São Marcos","rank":7,"tipo":"bay"},"geometry":{"type":"Point","coordinates":[-44.072,-2.58]}},{"type":"Feature","properties":{"nombre":"Cumberland Sound","nombre_en":"Cumberland Sound","rank":5,"tipo":"sound"},"geometry":{"type":"Point","coordinates":[-66.19,65.177]}},{"type":"Feature","properties":{"nombre":"Bahía de Frobisher","nombre_en":"Frobisher Bay","rank":5,"tipo":"bay"},"geometry":{"type":"Point","coordinates":[-67.205,62.982]}},{"type":"Feature","properties":{"nombre":"Bahía de Disko","nombre_en":"Disko Bay","rank":5,"tipo":"bay"},"geometry":{"type":"Point","coordinates":[-52.282,69.532]}},{"type":"Feature","properties":{"nombre":"Hamilton Inlet","nombre_en":"Hamilton Inlet","rank":7,"tipo":"bay"},"geometry":{"type":"Point","coordinates":[-58.896,53.851]}},{"type":"Feature","properties":{"nombre":"Storfjorden","nombre_en":"Storfjorden","rank":5,"tipo":"fjord"},"geometry":{"type":"Point","coordinates":[19.315,77.626]}},{"type":"Feature","properties":{"nombre":"Vestfjorden","nombre_en":"Vestfjorden","rank":5,"tipo":"fjord"},"geometry":{"type":"Point","coordinates":[15.201,67.653]}},{"type":"Feature","properties":{"nombre":"Skagerrak","nombre_en":"Skagerrak","rank":5,"tipo":"fjord"},"geometry":{"type":"Point","coordinates":[9.257,58.303]}},{"type":"Feature","properties":{"nombre":"Estrecho de Kara","nombre_en":"Kara Strait","rank":7,"tipo":"strait"},"geometry":{"type":"Point","coordinates":[57.491,70.714]}},{"type":"Feature","properties":{"nombre":"Estrecho Vil'kitskogo","nombre_en":"Vilkitsky Strait","rank":5,"tipo":"strait"},"geometry":{"type":"Point","coordinates":[102.915,77.766]}},{"type":"Feature","properties":{"nombre":"Fiordo de Sogn","nombre_en":"Sognefjord","rank":7,"tipo":"fjord"},"geometry":{"type":"Point","coordinates":[6.237,61.185]}},{"type":"Feature","properties":{"nombre":"Fiordo de Trondheim","nombre_en":"Trondheimsfjord","rank":7,"tipo":"fjord"},"geometry":{"type":"Point","coordinates":[10.111,63.72]}},{"type":"Feature","properties":{"nombre":"Categat","nombre_en":"Kattegat","rank":5,"tipo":"sea"},"geometry":{"type":"Point","coordinates":[11.601,57.039]}},{"type":"Feature","properties":{"nombre":"Golfo de Khambhat","nombre_en":"Gulf of Khambhat","rank":5,"tipo":"gulf"},"geometry":{"type":"Point","coordinates":[71.985,21.057]}},{"type":"Feature","properties":{"nombre":"Estrecho de Palk","nombre_en":"Palk Strait","rank":7,"tipo":"strait"},"geometry":{"type":"Point","coordinates":[79.674,9.624]}},{"type":"Feature","properties":{"nombre":"Golfo Kronotskiy","nombre_en":"Kronotsky Gulf","rank":5,"tipo":"gulf"},"geometry":{"type":"Point","coordinates":[160.676,53.852]}},{"type":"Feature","properties":{"nombre":"Bahía del Uda","nombre_en":"Uda Gulf","rank":5,"tipo":"bay"},"geometry":{"type":"Point","coordinates":[136.711,55.132]}},{"type":"Feature","properties":{"nombre":"Bahía de Uchiura","nombre_en":"Uchiura Bay","rank":5,"tipo":"bay"},"geometry":{"type":"Point","coordinates":[141.78,41.499]}},{"type":"Feature","properties":{"nombre":"Estrecho de Tsugaru","nombre_en":"Tsugaru Strait","rank":7,"tipo":"strait"},"geometry":{"type":"Point","coordinates":[140.804,41.323]}},{"type":"Feature","properties":{"nombre":"Estrecho de Tartaria","nombre_en":"Strait of Tartary","rank":7,"tipo":"strait"},"geometry":{"type":"Point","coordinates":[141.357,52.643]}},{"type":"Feature","properties":{"nombre":"Bahía Shark","nombre_en":"Shark Bay","rank":5,"tipo":"bay"},"geometry":{"type":"Point","coordinates":[113.813,-25.324]}},{"type":"Feature","properties":{"nombre":"Golfo de Gabés","nombre_en":"Gulf of Gabès","rank":5,"tipo":"gulf"},"geometry":{"type":"Point","coordinates":[10.614,34.447]}},{"type":"Feature","properties":{"nombre":"Bahía Mackenzie","nombre_en":"Mackenzie Bay","rank":5,"tipo":"bay"},"geometry":{"type":"Point","coordinates":[-136.815,69.168]}},{"type":"Feature","properties":{"nombre":"Norton Sound","nombre_en":"Norton Sound","rank":5,"tipo":"sound"},"geometry":{"type":"Point","coordinates":[-162.871,63.971]}},{"type":"Feature","properties":{"nombre":"Kotzebue Sound","nombre_en":"Kotzebue Sound","rank":5,"tipo":"sound"},"geometry":{"type":"Point","coordinates":[-162.154,66.637]}},{"type":"Feature","properties":{"nombre":"Golfo de Boothia","nombre_en":"Gulf of Boothia","rank":5,"tipo":"gulf"},"geometry":{"type":"Point","coordinates":[-88.875,69.106]}},{"type":"Feature","properties":{"nombre":"Cuenca Kane","nombre_en":"Kane Basin","rank":5,"tipo":"bay"},"geometry":{"type":"Point","coordinates":[-71.38,79.622]}},{"type":"Feature","properties":{"nombre":"Cuenca Foxe","nombre_en":"Foxe Basin","rank":5,"tipo":"bay"},"geometry":{"type":"Point","coordinates":[-79.484,67.184]}},{"type":"Feature","properties":{"nombre":"Golfo de Tehuantepec","nombre_en":"Gulf of Tehuantepec","rank":5,"tipo":"gulf"},"geometry":{"type":"Point","coordinates":[-94.619,15.865]}},{"type":"Feature","properties":{"nombre":"Golfo de Guayaquil","nombre_en":"Gulf of Guayaquil","rank":5,"tipo":"gulf"},"geometry":{"type":"Point","coordinates":[-80.345,-2.902]}},{"type":"Feature","properties":{"nombre":"Golfo de Masira","nombre_en":"Gulf of Masirah","rank":5,"tipo":"gulf"},"geometry":{"type":"Point","coordinates":[58.181,19.81]}},{"type":"Feature","properties":{"nombre":"Bahía del Yana","nombre_en":"Yana Bay","rank":5,"tipo":"gulf"},"geometry":{"type":"Point","coordinates":[136.87,73.202]}},{"type":"Feature","properties":{"nombre":"Estrecho de Dmitri Láptev","nombre_en":"Dmitry Laptev Strait","rank":7,"tipo":"strait"},"geometry":{"type":"Point","coordinates":[141.736,73.067]}},{"type":"Feature","properties":{"nombre":"Estrecho de La Pérouse","nombre_en":"La Pérouse Strait","rank":5,"tipo":"strait"},"geometry":{"type":"Point","coordinates":[141.829,45.452]}},{"type":"Feature","properties":{"nombre":"Bahía Oriental de Corea","nombre_en":"East Korea Bay","rank":5,"tipo":"bay"},"geometry":{"type":"Point","coordinates":[127.848,39.368]}},{"type":"Feature","properties":{"nombre":"Estrecho de Qiongzhou","nombre_en":"Qiongzhou Strait","rank":7,"tipo":"strait"},"geometry":{"type":"Point","coordinates":[110.214,20.197]}},{"type":"Feature","properties":{"nombre":"Estrecho de Cook","nombre_en":"Cook Strait","rank":7,"tipo":"strait"},"geometry":{"type":"Point","coordinates":[174.641,-41.27]}},{"type":"Feature","properties":{"nombre":"estrecho de Torres","nombre_en":"Torres Strait","rank":5,"tipo":"strait"},"geometry":{"type":"Point","coordinates":[142.132,-10.104]}},{"type":"Feature","properties":{"nombre":"Bahía Geographe","nombre_en":"Geographe Bay","rank":5,"tipo":"bay"},"geometry":{"type":"Point","coordinates":[115.377,-31.976]}},{"type":"Feature","properties":{"nombre":"Golfo de Papúa","nombre_en":"Gulf of Papua","rank":5,"tipo":"gulf"},"geometry":{"type":"Point","coordinates":[144.417,-8.202]}},{"type":"Feature","properties":{"nombre":"Gulf of Olen‘k","nombre_en":"Olenyok Gulf","rank":5,"tipo":"gulf"},"geometry":{"type":"Point","coordinates":[121.0,73.217]}},{"type":"Feature","properties":{"nombre":"Golfo de Riga","nombre_en":"Gulf of Riga","rank":5,"tipo":"gulf"},"geometry":{"type":"Point","coordinates":[23.145,57.999]}},{"type":"Feature","properties":{"nombre":"mar de Frisia","nombre_en":"Wadden Sea","rank":7,"tipo":"lagoon"},"geometry":{"type":"Point","coordinates":[5.399,53.166]}},{"type":"Feature","properties":{"nombre":"golfo de Sirte","nombre_en":"Gulf of Sidra","rank":5,"tipo":"gulf"},"geometry":{"type":"Point","coordinates":[17.755,31.208]}},{"type":"Feature","properties":{"nombre":"mar de Creta","nombre_en":"Sea of Crete","rank":5,"tipo":"sea"},"geometry":{"type":"Point","coordinates":[25.431,36.579]}},{"type":"Feature","properties":{"nombre":"mar de Liguria","nombre_en":"Ligurian Sea","rank":5,"tipo":"sea"},"geometry":{"type":"Point","coordinates":[8.793,43.722]}},{"type":"Feature","properties":{"nombre":"mar de Alborán","nombre_en":"Alboran Sea","rank":7,"tipo":"sea"},"geometry":{"type":"Point","coordinates":[-3.434,35.958]}},{"type":"Feature","properties":{"nombre":"Golfo de Benín","nombre_en":"Bight of Benin","rank":5,"tipo":"bay"},"geometry":{"type":"Point","coordinates":[3.265,5.625]}},{"type":"Feature","properties":{"nombre":"Golfo de Biafra","nombre_en":"Bight of Biafra","rank":5,"tipo":"bay"},"geometry":{"type":"Point","coordinates":[8.286,3.934]}},{"type":"Feature","properties":{"nombre":"Estrecho de Belle Isle","nombre_en":"Strait of Belle Isle","rank":7,"tipo":"strait"},"geometry":{"type":"Point","coordinates":[-56.21,51.707]}},{"type":"Feature","properties":{"nombre":"Prince William Sound","nombre_en":"Prince William Sound","rank":7,"tipo":"sound"},"geometry":{"type":"Point","coordinates":[-147.157,60.581]}},{"type":"Feature","properties":{"nombre":"Estrecho de Magallanes","nombre_en":"Strait of Magellan","rank":6,"tipo":"strait"},"geometry":{"type":"Point","coordinates":[-71.665,-53.172]}},{"type":"Feature","properties":{"nombre":"Bahía Blanca","nombre_en":"Bahía Blanca","rank":5,"tipo":"bay"},"geometry":{"type":"Point","coordinates":[-61.891,-39.133]}},{"type":"Feature","properties":{"nombre":"Golfo de Penas","nombre_en":"Gulf of Penas","rank":5,"tipo":"gulf"},"geometry":{"type":"Point","coordinates":[-74.849,-47.134]}},{"type":"Feature","properties":{"nombre":"Bahía Grande","nombre_en":"Bahía Grande","rank":5,"tipo":"bay"},"geometry":{"type":"Point","coordinates":[-68.688,-51.027]}},{"type":"Feature","properties":{"nombre":"Bahía Margarita","nombre_en":"Marguerite Bay","rank":5,"tipo":"bay"},"geometry":{"type":"Point","coordinates":[-68.539,-68.356]}},{"type":"Feature","properties":{"nombre":"Bahía Prydz","nombre_en":"Prydz Bay","rank":5,"tipo":"bay"},"geometry":{"type":"Point","coordinates":[72.818,-70.543]}},{"type":"Feature","properties":{"nombre":"Bahía Vincennes","nombre_en":"Vincennes Bay","rank":5,"tipo":"bay"},"geometry":{"type":"Point","coordinates":[107.679,-66.483]}},{"type":"Feature","properties":{"nombre":"Bahía Porpoise","nombre_en":"Porpoise Bay","rank":5,"tipo":"bay"},"geometry":{"type":"Point","coordinates":[128.501,-66.664]}},{"type":"Feature","properties":{"nombre":"Mar de Davis","nombre_en":"Davis Sea","rank":5,"tipo":"sea"},"geometry":{"type":"Point","coordinates":[98.352,-65.253]}},{"type":"Feature","properties":{"nombre":"Bahía de Lützow-Holm","nombre_en":"Lützow-Holm Bay","rank":5,"tipo":"bay"},"geometry":{"type":"Point","coordinates":[37.212,-69.45]}},{"type":"Feature","properties":{"nombre":"Bahía de Antongil","nombre_en":"Antongil Bay","rank":7,"tipo":"bay"},"geometry":{"type":"Point","coordinates":[49.922,-15.844]}},{"type":"Feature","properties":{"nombre":"Bahía de Hangzhou","nombre_en":"Hangzhouwan","rank":5,"tipo":"bay"},"geometry":{"type":"Point","coordinates":[121.105,30.4]}},{"type":"Feature","properties":{"nombre":"Golfo Karaguinski","nombre_en":"Karaginsky Gulf","rank":5,"tipo":"gulf"},"geometry":{"type":"Point","coordinates":[164.156,59.098]}},{"type":"Feature","properties":{"nombre":"Golfo de Kamchatka","nombre_en":"Kamchatka Gulf","rank":5,"tipo":"gulf"},"geometry":{"type":"Point","coordinates":[162.381,55.673]}},{"type":"Feature","properties":{"nombre":"Bósforo","nombre_en":"Bosporus","rank":5,"tipo":"strait"},"geometry":{"type":"Point","coordinates":[29.045,41.11]}},{"type":"Feature","properties":{"nombre":"Bab el-Mandeb","nombre_en":"Bab-el-Mandeb","rank":7,"tipo":"strait"},"geometry":{"type":"Point","coordinates":[43.441,12.964]}},{"type":"Feature","properties":{"nombre":"Golfo Saint Vicent","nombre_en":"Gulf St Vincent","rank":5,"tipo":"gulf"},"geometry":{"type":"Point","coordinates":[137.09,-34.231]}},{"type":"Feature","properties":{"nombre":"Golfo de Urabá","nombre_en":"Gulf of Urabá","rank":7,"tipo":"gulf"},"geometry":{"type":"Point","coordinates":[-77.002,8.246]}},{"type":"Feature","properties":{"nombre":"Bahía de Maputo","nombre_en":"Maputo Bay","rank":5,"tipo":"bay"},"geometry":{"type":"Point","coordinates":[32.862,-25.627]}},{"type":"Feature","properties":{"nombre":"St. Helena Bay","nombre_en":"St. Helena Bay","rank":5,"tipo":"bay"},"geometry":{"type":"Point","coordinates":[18.172,-32.541]}},{"type":"Feature","properties":{"nombre":"Boknafjorden","nombre_en":"Boknafjord","rank":5,"tipo":"fjord"},"geometry":{"type":"Point","coordinates":[5.882,59.216]}},{"type":"Feature","properties":{"nombre":"Golfo de José Bonaparte","nombre_en":"Joseph Bonaparte Gulf","rank":5,"tipo":"gulf"},"geometry":{"type":"Point","coordinates":[128.443,-14.47]}},{"type":"Feature","properties":{"nombre":"Golfo de Martaban","nombre_en":"Gulf of Martaban","rank":5,"tipo":"gulf"},"geometry":{"type":"Point","coordinates":[96.659,16.173]}},{"type":"Feature","properties":{"nombre":"Golfo de Sajalín","nombre_en":"Sakhalin Gulf","rank":5,"tipo":"gulf"},"geometry":{"type":"Point","coordinates":[141.231,53.792]}},{"type":"Feature","properties":{"nombre":"Scoresby Sund","nombre_en":"Scoresby Sound","rank":5,"tipo":"fjord"},"geometry":{"type":"Point","coordinates":[-25.349,70.811]}},{"type":"Feature","properties":{"nombre":"río San Lorenzo","nombre_en":"Saint Lawrence River","rank":6,"tipo":"channel"},"geometry":{"type":"Point","coordinates":[-69.614,47.662]}},{"type":"Feature","properties":{"nombre":"Bahía Chaunskaya","nombre_en":"Chaunskaya Bay","rank":6,"tipo":"bay"},"geometry":{"type":"Point","coordinates":[169.573,69.312]}},{"type":"Feature","properties":{"nombre":"Golfo de Játanga","nombre_en":"Khatanga Gulf","rank":6,"tipo":"gulf"},"geometry":{"type":"Point","coordinates":[109.378,74.034]}},{"type":"Feature","properties":{"nombre":"Kara Bogaz Gol","nombre_en":"Garabogazköl","rank":6,"tipo":"bay"},"geometry":{"type":"Point","coordinates":[53.769,41.393]}},{"type":"Feature","properties":{"nombre":"Golfo de Suez","nombre_en":"Gulf of Suez","rank":6,"tipo":"gulf"},"geometry":{"type":"Point","coordinates":[33.283,28.598]}},{"type":"Feature","properties":{"nombre":"Golfo del Obi","nombre_en":"Gulf of Ob","rank":6,"tipo":"gulf"},"geometry":{"type":"Point","coordinates":[73.968,69.609]}},{"type":"Feature","properties":{"nombre":"Golfo de Yeniséi","nombre_en":"Yenisei Gulf","rank":6,"tipo":"gulf"},"geometry":{"type":"Point","coordinates":[80.925,71.723]}},{"type":"Feature","properties":{"nombre":"Dardanelos","nombre_en":"Dardanelles","rank":7,"tipo":"channel"},"geometry":{"type":"Point","coordinates":[26.461,40.209]}},{"type":"Feature","properties":{"nombre":"mar de Mármara","nombre_en":"Sea of Marmara","rank":6,"tipo":"sea"},"geometry":{"type":"Point","coordinates":[28.265,40.7]}},{"type":"Feature","properties":{"nombre":"Golfo de Aqaba","nombre_en":"Gulf of Aqaba","rank":7,"tipo":"gulf"},"geometry":{"type":"Point","coordinates":[34.685,28.766]}},{"type":"Feature","properties":{"nombre":"Lago de Maracaibo","nombre_en":"Lake Maracaibo","rank":6,"tipo":"lagoon"},"geometry":{"type":"Point","coordinates":[-71.583,9.913]}},{"type":"Feature","properties":{"nombre":"Estrecho de Dinamarca","nombre_en":"Denmark Strait","rank":6,"tipo":"strait"},"geometry":{"type":"Point","coordinates":[-26.378,66.649]}},{"type":"Feature","properties":{"nombre":"Bahía de Massachusetts","nombre_en":"Massachusetts Bay","rank":7,"tipo":"bay"},"geometry":{"type":"Point","coordinates":[-70.524,42.176]}},{"type":"Feature","properties":{"nombre":"Bahía de Delaware","nombre_en":"Delaware Bay","rank":7,"tipo":"bay"},"geometry":{"type":"Point","coordinates":[-75.242,39.38]}},{"type":"Feature","properties":{"nombre":"Long Island Sound","nombre_en":"Long Island Sound","rank":7,"tipo":"sound"},"geometry":{"type":"Point","coordinates":[-73.043,41.062]}},{"type":"Feature","properties":{"nombre":"Albemarle Sound","nombre_en":"Albemarle Sound","rank":7,"tipo":"sound"},"geometry":{"type":"Point","coordinates":[-76.181,36.175]}},{"type":"Feature","properties":{"nombre":"Pamlico Sound","nombre_en":"Pamlico Sound","rank":7,"tipo":"sound"},"geometry":{"type":"Point","coordinates":[-76.276,35.297]}},{"type":"Feature","properties":{"nombre":null,"nombre_en":null,"rank":8,"tipo":"generic"},"geometry":{"type":"Point","coordinates":[-128.746,53.04]}},{"type":"Feature","properties":{"nombre":"Estrecho de Smith","nombre_en":"Smith Sound","rank":8,"tipo":"sound"},"geometry":{"type":"Point","coordinates":[-127.397,52.07]}},{"type":"Feature","properties":{"nombre":null,"nombre_en":null,"rank":8,"tipo":"generic"},"geometry":{"type":"Point","coordinates":[-133.904,57.299]}},{"type":"Feature","properties":{"nombre":"Estrecho de la Reina Carlota","nombre_en":"Queen Charlotte Strait","rank":8,"tipo":"strait"},"geometry":{"type":"Point","coordinates":[-126.383,50.582]}},{"type":"Feature","properties":{"nombre":"Baird Inlet","nombre_en":"Baird Inlet","rank":8,"tipo":"inlet"},"geometry":{"type":"Point","coordinates":[-164.113,60.78]}},{"type":"Feature","properties":{"nombre":null,"nombre_en":null,"rank":8,"tipo":"generic"},"geometry":{"type":"Point","coordinates":[-132.342,53.871]}},{"type":"Feature","properties":{"nombre":"Lagos Husky","nombre_en":"Husky Lakes","rank":8,"tipo":"lagoon"},"geometry":{"type":"Point","coordinates":[-132.525,69.153]}},{"type":"Feature","properties":{"nombre":"Lago Pontchartrain","nombre_en":"Lake Pontchartrain","rank":8,"tipo":"lagoon"},"geometry":{"type":"Point","coordinates":[-90.071,30.204]}},{"type":"Feature","properties":{"nombre":"Laguna de Szczecin","nombre_en":"Szczecin Lagoon","rank":8,"tipo":"lagoon"},"geometry":{"type":"Point","coordinates":[14.194,53.85]}},{"type":"Feature","properties":{"nombre":"Bahía Darnley","nombre_en":"Darnley Bay","rank":7,"tipo":"bay"},"geometry":{"type":"Point","coordinates":[-123.784,69.564]}},{"type":"Feature","properties":{"nombre":null,"nombre_en":null,"rank":8,"tipo":"generic"},"geometry":{"type":"Point","coordinates":[-118.208,71.567]}},{"type":"Feature","properties":{"nombre":"Estrecho del Príncipe de Gales","nombre_en":"Prince of Wales Strait","rank":7,"tipo":"strait"},"geometry":{"type":"Point","coordinates":[-117.557,72.555]}},{"type":"Feature","properties":{"nombre":"Minto Inlet","nombre_en":"Minto Inlet","rank":8,"tipo":"sound"},"geometry":{"type":"Point","coordinates":[-116.813,71.279]}},{"type":"Feature","properties":{"nombre":"Richard Collinson Inlet","nombre_en":"Richard Collinson Inlet","rank":8,"tipo":"bay"},"geometry":{"type":"Point","coordinates":[-113.846,72.898]}},{"type":"Feature","properties":{"nombre":"Prince Albert Sound","nombre_en":"Prince Albert Sound","rank":7,"tipo":"sound"},"geometry":{"type":"Point","coordinates":[-114.61,70.378]}},{"type":"Feature","properties":{"nombre":"Golfo de Liddon","nombre_en":"Liddon Gulf","rank":7,"tipo":"gulf"},"geometry":{"type":"Point","coordinates":[-113.038,75.057]}},{"type":"Feature","properties":{"nombre":"Wynniatt Bay","nombre_en":"Wynniatt Bay","rank":8,"tipo":"bay"},"geometry":{"type":"Point","coordinates":[-111.046,72.631]}},{"type":"Feature","properties":{"nombre":"Bahía Hadley","nombre_en":"Hadley Bay","rank":7,"tipo":"bay"},"geometry":{"type":"Point","coordinates":[-108.023,72.36]}},{"type":"Feature","properties":{"nombre":"Bathurst Inlet","nombre_en":"Bathurst Inlet","rank":8,"tipo":"bay"},"geometry":{"type":"Point","coordinates":[-107.826,67.049]}},{"type":"Feature","properties":{"nombre":null,"nombre_en":null,"rank":8,"tipo":"generic"},"geometry":{"type":"Point","coordinates":[-106.777,68.335]}},{"type":"Feature","properties":{"nombre":"Canal Goldsmith","nombre_en":"Goldsmith Channel","rank":8,"tipo":"channel"},"geometry":{"type":"Point","coordinates":[-106.167,73.111]}},{"type":"Feature","properties":{"nombre":"Sherman Basin","nombre_en":"Sherman Basin","rank":8,"tipo":"bay"},"geometry":{"type":"Point","coordinates":[-97.777,67.826]}},{"type":"Feature","properties":{"nombre":"Bahía Wager","nombre_en":"Wager Bay","rank":8,"tipo":"bay"},"geometry":{"type":"Point","coordinates":[-89.553,65.619]}},{"type":"Feature","properties":{"nombre":"Estrecho del Fury y del Hecla","nombre_en":"Fury and Hecla Strait","rank":7,"tipo":"strait"},"geometry":{"type":"Point","coordinates":[-83.966,69.878]}},{"type":"Feature","properties":{"nombre":null,"nombre_en":null,"rank":8,"tipo":"generic"},"geometry":{"type":"Point","coordinates":[-80.62,69.924]}},{"type":"Feature","properties":{"nombre":"Jones Sound","nombre_en":"Jones Sound","rank":6,"tipo":"sound"},"geometry":{"type":"Point","coordinates":[-84.946,76.084]}},{"type":"Feature","properties":{"nombre":"Eclipse Sound","nombre_en":"Eclipse Sound","rank":7,"tipo":"sound"},"geometry":{"type":"Point","coordinates":[-79.127,72.58]}},{"type":"Feature","properties":{"nombre":"Cuenca Hall","nombre_en":"Hall Basin","rank":7,"tipo":"gulf"},"geometry":{"type":"Point","coordinates":[-64.911,81.46]}},{"type":"Feature","properties":{"nombre":"Fiordo de Uummannaq","nombre_en":"Uummannaq fjord","rank":7,"tipo":"fjord"},"geometry":{"type":"Point","coordinates":[-52.722,71.363]}},{"type":"Feature","properties":{"nombre":"Peacock Sound","nombre_en":"Peacock Sound","rank":7,"tipo":"sound"},"geometry":{"type":"Point","coordinates":[-99.007,-72.716]}},{"type":"Feature","properties":{"nombre":"Canal Jorge VI","nombre_en":"George VI Sound","rank":7,"tipo":"sound"},"geometry":{"type":"Point","coordinates":[-70.748,-71.59]}},{"type":"Feature","properties":{"nombre":"Seno Skyring","nombre_en":"Seno Skyring","rank":8,"tipo":"sound"},"geometry":{"type":"Point","coordinates":[-72.321,-52.877]}},{"type":"Feature","properties":{"nombre":"Seno Otway","nombre_en":"Seno Otway","rank":8,"tipo":"sound"},"geometry":{"type":"Point","coordinates":[-71.851,-53.144]}},{"type":"Feature","properties":{"nombre":"Bahía Inútil","nombre_en":"Inútil Bay","rank":8,"tipo":"bay"},"geometry":{"type":"Point","coordinates":[-69.837,-53.936]}},{"type":"Feature","properties":{"nombre":"Lagoa dos Patos","nombre_en":"Patos Lagoon","rank":7,"tipo":"lagoon"},"geometry":{"type":"Point","coordinates":[-51.37,-31.059]}},{"type":"Feature","properties":{"nombre":"Amazonas","nombre_en":"Amazon","rank":4,"tipo":"river"},"geometry":{"type":"Point","coordinates":[-51.201,-1.123]}},{"type":"Feature","properties":{"nombre":"Lago Bras d'Or","nombre_en":"Bras d'Or Lake","rank":9,"tipo":"lagoon"},"geometry":{"type":"Point","coordinates":[-60.783,45.959]}},{"type":"Feature","properties":{"nombre":"Kaliningrad","nombre_en":"Kaliningrad","rank":8,"tipo":"lagoon"},"geometry":{"type":"Point","coordinates":[20.916,55.272]}},{"type":"Feature","properties":{"nombre":"Estrecho de Matochkin","nombre_en":"Matochkin Strait","rank":8,"tipo":"strait"},"geometry":{"type":"Point","coordinates":[55.318,73.332]}},{"type":"Feature","properties":{"nombre":"Lago Mogotoyevo","nombre_en":"Lake Mogotoyevo","rank":8,"tipo":"lagoon"},"geometry":{"type":"Point","coordinates":[145.203,72.286]}},{"type":"Feature","properties":{"nombre":"Guba Gusinaya","nombre_en":"Guba Gusinaya","rank":8,"tipo":"bay"},"geometry":{"type":"Point","coordinates":[146.069,71.997]}},{"type":"Feature","properties":{"nombre":"mar de Bali","nombre_en":"Bali Sea","rank":7,"tipo":"sea"},"geometry":{"type":"Point","coordinates":[115.811,-8.006]}},{"type":"Feature","properties":{"nombre":"Golfo de Davao","nombre_en":"Davao Gulf","rank":7,"tipo":"gulf"},"geometry":{"type":"Point","coordinates":[125.776,6.659]}},{"type":"Feature","properties":{"nombre":"mar de Halmahera","nombre_en":"Halmahera Sea","rank":7,"tipo":"sea"},"geometry":{"type":"Point","coordinates":[129.332,-0.549]}},{"type":"Feature","properties":{"nombre":"Estrecho de Bali","nombre_en":"Bali Strait","rank":9,"tipo":"strait"},"geometry":{"type":"Point","coordinates":[114.763,-8.48]}},{"type":"Feature","properties":{"nombre":"Golfo de Tomini","nombre_en":"Gulf of Tomini","rank":7,"tipo":"gulf"},"geometry":{"type":"Point","coordinates":[121.755,-0.439]}},{"type":"Feature","properties":{"nombre":"mar de Flores","nombre_en":"Flores Sea","rank":7,"tipo":"sea"},"geometry":{"type":"Point","coordinates":[119.963,-7.192]}},{"type":"Feature","properties":{"nombre":"mar de Sibuyan","nombre_en":"Sibuyan Sea","rank":7,"tipo":"sea"},"geometry":{"type":"Point","coordinates":[122.394,12.509]}},{"type":"Feature","properties":{"nombre":"Estrecho de Dampier","nombre_en":"Dampier Strait","rank":8,"tipo":"strait"},"geometry":{"type":"Point","coordinates":[130.926,-0.692]}},{"type":"Feature","properties":{"nombre":"Golfo de Buli","nombre_en":"Buli Bay","rank":7,"tipo":"gulf"},"geometry":{"type":"Point","coordinates":[129.119,0.728]}},{"type":"Feature","properties":{"nombre":"Golfo de Kau","nombre_en":"Kao Bay","rank":8,"tipo":"gulf"},"geometry":{"type":"Point","coordinates":[128.335,1.601]}},{"type":"Feature","properties":{"nombre":"mar de Bohol","nombre_en":"Bohol Sea","rank":7,"tipo":"sea"},"geometry":{"type":"Point","coordinates":[124.354,9.506]}},{"type":"Feature","properties":{"nombre":null,"nombre_en":null,"rank":9,"tipo":"generic"},"geometry":{"type":"Point","coordinates":[125.863,9.812]}},{"type":"Feature","properties":{"nombre":"Estrecho de Surigao","nombre_en":"Surigao Strait","rank":9,"tipo":"strait"},"geometry":{"type":"Point","coordinates":[125.399,10.167]}},{"type":"Feature","properties":{"nombre":null,"nombre_en":null,"rank":9,"tipo":"generic"},"geometry":{"type":"Point","coordinates":[123.484,10.08]}},{"type":"Feature","properties":{"nombre":"Golfo de Ragay","nombre_en":"Ragay Gulf","rank":9,"tipo":"gulf"},"geometry":{"type":"Point","coordinates":[122.892,13.457]}},{"type":"Feature","properties":{"nombre":"mar de Sámar","nombre_en":"Samar Sea","rank":8,"tipo":"sea"},"geometry":{"type":"Point","coordinates":[124.196,12.084]}},{"type":"Feature","properties":{"nombre":"Bahía de Tayabas","nombre_en":"Tayabas Bay","rank":8,"tipo":"bay"},"geometry":{"type":"Point","coordinates":[121.618,13.52]}},{"type":"Feature","properties":{"nombre":"Golfo de Leyte","nombre_en":"Leyte Gulf","rank":9,"tipo":"gulf"},"geometry":{"type":"Point","coordinates":[125.362,10.764]}},{"type":"Feature","properties":{"nombre":"mar de Bisayas","nombre_en":"Visayan Sea","rank":8,"tipo":"sea"},"geometry":{"type":"Point","coordinates":[123.539,11.344]}},{"type":"Feature","properties":{"nombre":"mar de Savu","nombre_en":"Savu Sea","rank":7,"tipo":"sea"},"geometry":{"type":"Point","coordinates":[121.8,-9.564]}},{"type":"Feature","properties":{"nombre":"Estrecho de Hécate","nombre_en":"Hecate Strait","rank":7,"tipo":"strait"},"geometry":{"type":"Point","coordinates":[-131.075,53.838]}},{"type":"Feature","properties":{"nombre":"Bahía Cordova","nombre_en":"Cordova Bay","rank":8,"tipo":"bay"},"geometry":{"type":"Point","coordinates":[-132.846,55.147]}},{"type":"Feature","properties":{"nombre":null,"nombre_en":null,"rank":8,"tipo":"generic"},"geometry":{"type":"Point","coordinates":[-130.041,55.16]}},{"type":"Feature","properties":{"nombre":"Estrecho de Murchison","nombre_en":"Murchison Sound","rank":7,"tipo":"sound"},"geometry":{"type":"Point","coordinates":[-69.46,77.622]}},{"type":"Feature","properties":{"nombre":"Canal Robeson","nombre_en":"Robeson Channel","rank":8,"tipo":"channel"},"geometry":{"type":"Point","coordinates":[-59.439,81.847]}},{"type":"Feature","properties":{"nombre":"Canal Kennedy","nombre_en":"Kennedy Channel","rank":7,"tipo":"channel"},"geometry":{"type":"Point","coordinates":[-65.924,80.836]}},{"type":"Feature","properties":{"nombre":null,"nombre_en":null,"rank":9,"tipo":"generic"},"geometry":{"type":"Point","coordinates":[-50.137,0.292]}},{"type":"Feature","properties":{"nombre":"Canal Perigoso","nombre_en":"Canal Perigoso","rank":9,"tipo":"channel"},"geometry":{"type":"Point","coordinates":[-49.741,0.063]}},{"type":"Feature","properties":{"nombre":"Canal do Sul","nombre_en":"Canal do Sul","rank":8,"tipo":"channel"},"geometry":{"type":"Point","coordinates":[-50.146,-0.23]}},{"type":"Feature","properties":{"nombre":"Canal do Norte","nombre_en":"Canal do Norte","rank":9,"tipo":"channel"},"geometry":{"type":"Point","coordinates":[-50.708,0.315]}},{"type":"Feature","properties":{"nombre":"Oresund","nombre_en":"Øresund","rank":7,"tipo":"sound"},"geometry":{"type":"Point","coordinates":[12.596,55.693]}},{"type":"Feature","properties":{"nombre":null,"nombre_en":null,"rank":7,"tipo":"generic"},"geometry":{"type":"Point","coordinates":[10.657,55.343]}},{"type":"Feature","properties":{"nombre":"Golfo de Mecklemburgo","nombre_en":"Bay of Mecklenburg","rank":7,"tipo":"bay"},"geometry":{"type":"Point","coordinates":[11.637,54.395]}},{"type":"Feature","properties":{"nombre":"mar de los Sargazos","nombre_en":"Sargasso Sea","rank":2,"tipo":"sea"},"geometry":{"type":"Point","coordinates":[-60.042,27.532]}},{"type":"Feature","properties":{"nombre":"Bahía de San Francisco","nombre_en":"San Francisco Bay","rank":7,"tipo":"bay"},"geometry":{"type":"Point","coordinates":[-122.024,37.812]}},{"type":"Feature","properties":{"nombre":"Bahía de Monterrey","nombre_en":"Monterey Bay","rank":7,"tipo":"bay"},"geometry":{"type":"Point","coordinates":[-121.978,36.782]}},{"type":"Feature","properties":{"nombre":"Yangtsé","nombre_en":"Yangtze","rank":4,"tipo":"river"},"geometry":{"type":"Point","coordinates":[120.993,31.526]}},{"type":"Feature","properties":{"nombre":"Río Columbia","nombre_en":"Columbia River","rank":4,"tipo":"river"},"geometry":{"type":"Point","coordinates":[-123.646,46.222]}},{"type":"Feature","properties":{"nombre":"Mar de los Salish","nombre_en":"Salish Sea","rank":6,"tipo":"sea"},"geometry":{"type":"Point","coordinates":[-123.739,48.742]}},{"type":"Feature","properties":{"nombre":"Golfo del Anádyr","nombre_en":"Gulf of Anadyr","rank":6,"tipo":"gulf"},"geometry":{"type":"Point","coordinates":[-176.848,64.028]}},{"type":"Feature","properties":{"nombre":"Mediterráneo","nombre_en":"Mediterranean Sea","rank":1,"tipo":"sea"},"geometry":{"type":"Point","coordinates":[17.049,37.329]}},{"type":"Feature","properties":{"nombre":"mar de Ross","nombre_en":"Ross Sea","rank":1,"tipo":"sea"},"geometry":{"type":"Point","coordinates":[-141.064,-78.566]}},{"type":"Feature","properties":{"nombre":"mar del Coral","nombre_en":"Coral Sea","rank":1,"tipo":"sea"},"geometry":{"type":"Point","coordinates":[156.308,-19.41]}},{"type":"Feature","properties":{"nombre":"mar del Japón","nombre_en":"Sea of Japan","rank":1,"tipo":"sea"},"geometry":{"type":"Point","coordinates":[135.26,43.093]}},{"type":"Feature","properties":{"nombre":"Estrecho de Corea","nombre_en":"Korea Strait","rank":4,"tipo":"strait"},"geometry":{"type":"Point","coordinates":[128.649,34.253]}}]}