{"type":"FeatureCollection","features":[{"type":"Feature","properties":{"nombre":"Indonesia","nombre_en":"Indonesia","iso":"IDN","min_label":1.7,"rank":2},"geometry":{"type":"Point","coordinates":[101.893,-0.954]}},{"type":"Feature","properties":{"nombre":"Malasia","nombre_en":"Malaysia","iso":"MYS","min_label":3,"rank":3},"geometry":{"type":"Point","coordinates":[113.837,2.529]}},{"type":"Feature","properties":{"nombre":"Chile","nombre_en":"Chile","iso":"CHL","min_label":1.7,"rank":2},"geometry":{"type":"Point","coordinates":[-72.319,-38.152]}},{"type":"Feature","properties":{"nombre":"Bolivia","nombre_en":"Bolivia","iso":"BOL","min_label":3,"rank":3},"geometry":{"type":"Point","coordinates":[-64.593,-16.666]}},{"type":"Feature","properties":{"nombre":"Perú","nombre_en":"Peru","iso":"PER","min_label":2,"rank":2},"geometry":{"type":"Point","coordinates":[-72.9,-12.977]}},{"type":"Feature","properties":{"nombre":"Argentina","nombre_en":"Argentina","iso":"ARG","min_label":2,"rank":2},"geometry":{"type":"Point","coordinates":[-64.173,-33.501]}},{"type":"Feature","properties":{"nombre":"Dekelia","nombre_en":"Dhekelia","iso":"ESB","min_label":6.5,"rank":3},"geometry":{"type":"Point","coordinates":[33.791,35.011]}},{"type":"Feature","properties":{"nombre":"Chipre","nombre_en":"Cyprus","iso":"CYP","min_label":4.5,"rank":5},"geometry":{"type":"Point","coordinates":[33.084,34.913]}},{"type":"Feature","properties":{"nombre":"India","nombre_en":"India","iso":"IND","min_label":1.7,"rank":2},"geometry":{"type":"Point","coordinates":[79.358,22.687]}},{"type":"Feature","properties":{"nombre":"China","nombre_en":"China","iso":"CHN","min_label":1.7,"rank":2},"geometry":{"type":"Point","coordinates":[106.337,32.498]}},{"type":"Feature","properties":{"nombre":"Israel","nombre_en":"Israel","iso":"ISR","min_label":3,"rank":4},"geometry":{"type":"Point","coordinates":[34.848,30.911]}},{"type":"Feature","properties":{"nombre":"Palestina","nombre_en":"Palestine","iso":"PSE","min_label":4.5,"rank":5},"geometry":{"type":"Point","coordinates":[35.291,32.047]}},{"type":"Feature","properties":{"nombre":"Líbano","nombre_en":"Lebanon","iso":"LBN","min_label":4,"rank":5},"geometry":{"type":"Point","coordinates":[35.993,34.133]}},{"type":"Feature","properties":{"nombre":"Etiopía","nombre_en":"Ethiopia","iso":"ETH","min_label":2,"rank":2},"geometry":{"type":"Point","coordinates":[39.089,8.033]}},{"type":"Feature","properties":{"nombre":"Sudán del Sur","nombre_en":"S. Sudan","iso":"SSD","min_label":3,"rank":3},"geometry":{"type":"Point","coordinates":[30.39,7.23]}},{"type":"Feature","properties":{"nombre":"Somalia","nombre_en":"Somalia","iso":"SOM","min_label":4,"rank":6},"geometry":{"type":"Point","coordinates":[45.192,3.569]}},{"type":"Feature","properties":{"nombre":"Kenia","nombre_en":"Kenya","iso":"KEN","min_label":1.7,"rank":2},"geometry":{"type":"Point","coordinates":[37.908,0.549]}},{"type":"Feature","properties":{"nombre":"Malaui","nombre_en":"Malawi","iso":"MWI","min_label":4,"rank":6},"geometry":{"type":"Point","coordinates":[33.608,-13.387]}},{"type":"Feature","properties":{"nombre":"Tanzania","nombre_en":"Tanzania","iso":"TZA","min_label":3,"rank":3},"geometry":{"type":"Point","coordinates":[34.959,-6.052]}},{"type":"Feature","properties":{"nombre":"Siria","nombre_en":"Syria","iso":"SYR","min_label":3,"rank":3},"geometry":{"type":"Point","coordinates":[38.278,35.007]}},{"type":"Feature","properties":{"nombre":"Somalilandia","nombre_en":"Somaliland","iso":"SOL","min_label":4.5,"rank":5},"geometry":{"type":"Point","coordinates":[46.732,9.444]}},{"type":"Feature","properties":{"nombre":"Francia","nombre_en":"France","iso":"FRA","min_label":1.7,"rank":2},"geometry":{"type":"Point","coordinates":[2.552,46.696]}},{"type":"Feature","properties":{"nombre":"Surinam","nombre_en":"Suriname","iso":"SUR","min_label":4,"rank":4},"geometry":{"type":"Point","coordinates":[-55.911,4.144]}},{"type":"Feature","properties":{"nombre":"Guyana","nombre_en":"Guyana","iso":"GUY","min_label":4,"rank":4},"geometry":{"type":"Point","coordinates":[-58.943,5.124]}},{"type":"Feature","properties":{"nombre":"Corea del Sur","nombre_en":"South Korea","iso":"KOR","min_label":2.5,"rank":2},"geometry":{"type":"Point","coordinates":[128.13,36.385]}},{"type":"Feature","properties":{"nombre":"Corea del Norte","nombre_en":"North Korea","iso":"PRK","min_label":3,"rank":3},"geometry":{"type":"Point","coordinates":[126.445,39.885]}},{"type":"Feature","properties":{"nombre":"Marruecos","nombre_en":"Morocco","iso":"MAR","min_label":2.7,"rank":3},"geometry":{"type":"Point","coordinates":[-7.187,31.651]}},{"type":"Feature","properties":{"nombre":"Sahara Occidental","nombre_en":"W. Sahara","iso":"ESH","min_label":6,"rank":7},"geometry":{"type":"Point","coordinates":[-12.63,23.968]}},{"type":"Feature","properties":{"nombre":"Costa Rica","nombre_en":"Costa Rica","iso":"CRI","min_label":2.5,"rank":5},"geometry":{"type":"Point","coordinates":[-84.078,10.065]}},{"type":"Feature","properties":{"nombre":"Nicaragua","nombre_en":"Nicaragua","iso":"NIC","min_label":4,"rank":5},"geometry":{"type":"Point","coordinates":[-85.069,12.671]}},{"type":"Feature","properties":{"nombre":"República del Congo","nombre_en":"Congo","iso":"COG","min_label":4,"rank":4},"geometry":{"type":"Point","coordinates":[15.9,0.142]}},{"type":"Feature","properties":{"nombre":"República Democrática del Congo","nombre_en":"Dem. Rep. Congo","iso":"COD","min_label":2,"rank":2},"geometry":{"type":"Point","coordinates":[23.459,-1.858]}},{"type":"Feature","properties":{"nombre":"Bután","nombre_en":"Bhutan","iso":"BTN","min_label":4,"rank":5},"geometry":{"type":"Point","coordinates":[90.04,27.537]}},{"type":"Feature","properties":{"nombre":"Ucrania","nombre_en":"Ukraine","iso":"UKR","min_label":2.7,"rank":3},"geometry":{"type":"Point","coordinates":[32.141,49.725]}},{"type":"Feature","properties":{"nombre":"Bielorrusia","nombre_en":"Belarus","iso":"BLR","min_label":3,"rank":4},"geometry":{"type":"Point","coordinates":[28.418,53.822]}},{"type":"Feature","properties":{"nombre":"Namibia","nombre_en":"Namibia","iso":"NAM","min_label":3,"rank":3},"geometry":{"type":"Point","coordinates":[17.108,-20.575]}},{"type":"Feature","properties":{"nombre":"Sudáfrica","nombre_en":"South Africa","iso":"ZAF","min_label":1.7,"rank":2},"geometry":{"type":"Point","coordinates":[23.666,-29.709]}},{"type":"Feature","properties":{"nombre":"San Martín","nombre_en":"St-Martin","iso":"MAF","min_label":5,"rank":6},"geometry":{"type":"Point","coordinates":[-63.049,18.081]}},{"type":"Feature","properties":{"nombre":"San Martín","nombre_en":"Sint Maarten","iso":"SXM","min_label":5,"rank":6},"geometry":{"type":"Point","coordinates":[-63.07,18.041]}},{"type":"Feature","properties":{"nombre":"Omán","nombre_en":"Oman","iso":"OMN","min_label":4,"rank":4},"geometry":{"type":"Point","coordinates":[57.337,22.12]}},{"type":"Feature","properties":{"nombre":"Uzbekistán","nombre_en":"Uzbekistan","iso":"UZB","min_label":3,"rank":3},"geometry":{"type":"Point","coordinates":[64.005,41.694]}},{"type":"Feature","properties":{"nombre":"Kazajistán","nombre_en":"Kazakhstan","iso":"KAZ","min_label":2.7,"rank":3},"geometry":{"type":"Point","coordinates":[68.686,49.054]}},{"type":"Feature","properties":{"nombre":"Tayikistán","nombre_en":"Tajikistan","iso":"TJK","min_label":4,"rank":4},"geometry":{"type":"Point","coordinates":[72.587,38.2]}},{"type":"Feature","properties":{"nombre":"Lituania","nombre_en":"Lithuania","iso":"LTU","min_label":4,"rank":5},"geometry":{"type":"Point","coordinates":[24.09,55.104]}},{"type":"Feature","properties":{"nombre":"Brasil","nombre_en":"Brazil","iso":"BRA","min_label":1.7,"rank":2},"geometry":{"type":"Point","coordinates":[-49.559,-12.099]}},{"type":"Feature","properties":{"nombre":"Uruguay","nombre_en":"Uruguay","iso":"URY","min_label":3,"rank":4},"geometry":{"type":"Point","coordinates":[-55.967,-32.961]}},{"type":"Feature","properties":{"nombre":"Mongolia","nombre_en":"Mongolia","iso":"MNG","min_label":3,"rank":3},"geometry":{"type":"Point","coordinates":[104.15,45.997]}},{"type":"Feature","properties":{"nombre":"Rusia","nombre_en":"Russia","iso":"RUS","min_label":1.7,"rank":2},"geometry":{"type":"Point","coordinates":[44.686,58.249]}},{"type":"Feature","properties":{"nombre":"República Checa","nombre_en":"Czechia","iso":"CZE","min_label":4,"rank":5},"geometry":{"type":"Point","coordinates":[15.378,49.882]}},{"type":"Feature","properties":{"nombre":"Alemania","nombre_en":"Germany","iso":"DEU","min_label":1.7,"rank":2},"geometry":{"type":"Point","coordinates":[9.678,50.962]}},{"type":"Feature","properties":{"nombre":"Estonia","nombre_en":"Estonia","iso":"EST","min_label":3,"rank":6},"geometry":{"type":"Point","coordinates":[25.867,58.725]}},{"type":"Feature","properties":{"nombre":"Letonia","nombre_en":"Latvia","iso":"LVA","min_label":4,"rank":5},"geometry":{"type":"Point","coordinates":[25.459,57.067]}},{"type":"Feature","properties":{"nombre":"Noruega","nombre_en":"Norway","iso":"NOR","min_label":3,"rank":3},"geometry":{"type":"Point","coordinates":[9.68,61.357]}},{"type":"Feature","properties":{"nombre":"Suecia","nombre_en":"Sweden","iso":"SWE","min_label":2,"rank":3},"geometry":{"type":"Point","coordinates":[19.017,65.859]}},{"type":"Feature","properties":{"nombre":"Finlandia","nombre_en":"Finland","iso":"FIN","min_label":3,"rank":3},"geometry":{"type":"Point","coordinates":[27.276,63.252]}},{"type":"Feature","properties":{"nombre":"Vietnam","nombre_en":"Vietnam","iso":"VNM","min_label":2,"rank":2},"geometry":{"type":"Point","coordinates":[105.387,21.715]}},{"type":"Feature","properties":{"nombre":"Camboya","nombre_en":"Cambodia","iso":"KHM","min_label":3,"rank":3},"geometry":{"type":"Point","coordinates":[104.505,12.648]}},{"type":"Feature","properties":{"nombre":"Luxemburgo","nombre_en":"Luxembourg","iso":"LUX","min_label":5.7,"rank":6},"geometry":{"type":"Point","coordinates":[6.078,49.734]}},{"type":"Feature","properties":{"nombre":"Emiratos Árabes Unidos","nombre_en":"United Arab Emirates","iso":"ARE","min_label":4,"rank":4},"geometry":{"type":"Point","coordinates":[54.547,23.466]}},{"type":"Feature","properties":{"nombre":"Bélgica","nombre_en":"Belgium","iso":"BEL","min_label":4,"rank":2},"geometry":{"type":"Point","coordinates":[4.8,50.785]}},{"type":"Feature","properties":{"nombre":"Georgia","nombre_en":"Georgia","iso":"GEO","min_label":4,"rank":5},"geometry":{"type":"Point","coordinates":[43.736,41.87]}},{"type":"Feature","properties":{"nombre":"Macedonia del Norte","nombre_en":"North Macedonia","iso":"MKD","min_label":5,"rank":6},"geometry":{"type":"Point","coordinates":[21.556,41.558]}},{"type":"Feature","properties":{"nombre":"Albania","nombre_en":"Albania","iso":"ALB","min_label":5,"rank":6},"geometry":{"type":"Point","coordinates":[20.114,40.655]}},{"type":"Feature","properties":{"nombre":"Azerbaiyán","nombre_en":"Azerbaijan","iso":"AZE","min_label":4,"rank":5},"geometry":{"type":"Point","coordinates":[47.211,40.402]}},{"type":"Feature","properties":{"nombre":"Kosovo","nombre_en":"Kosovo","iso":"KOS","min_label":5,"rank":6},"geometry":{"type":"Point","coordinates":[20.861,42.594]}},{"type":"Feature","properties":{"nombre":"Turquía","nombre_en":"Turkey","iso":"TUR","min_label":2,"rank":2},"geometry":{"type":"Point","coordinates":[34.508,39.345]}},{"type":"Feature","properties":{"nombre":"España","nombre_en":"Spain","iso":"ESP","min_label":2,"rank":2},"geometry":{"type":"Point","coordinates":[-3.465,40.091]}},{"type":"Feature","properties":{"nombre":"Laos","nombre_en":"Laos","iso":"LAO","min_label":4,"rank":4},"geometry":{"type":"Point","coordinates":[102.534,19.432]}},{"type":"Feature","properties":{"nombre":"Kirguistán","nombre_en":"Kyrgyzstan","iso":"KGZ","min_label":3,"rank":4},"geometry":{"type":"Point","coordinates":[74.533,41.669]}},{"type":"Feature","properties":{"nombre":"Armenia","nombre_en":"Armenia","iso":"ARM","min_label":5,"rank":6},"geometry":{"type":"Point","coordinates":[44.801,40.459]}},{"type":"Feature","properties":{"nombre":"Dinamarca","nombre_en":"Denmark","iso":"DNK","min_label":3,"rank":4},"geometry":{"type":"Point","coordinates":[9.018,55.967]}},{"type":"Feature","properties":{"nombre":"Libia","nombre_en":"Libya","iso":"LBY","min_label":3,"rank":3},"geometry":{"type":"Point","coordinates":[18.011,26.639]}},{"type":"Feature","properties":{"nombre":"Túnez","nombre_en":"Tunisia","iso":"TUN","min_label":3,"rank":3},"geometry":{"type":"Point","coordinates":[9.008,33.687]}},{"type":"Feature","properties":{"nombre":"Rumania","nombre_en":"Romania","iso":"ROU","min_label":3,"rank":3},"geometry":{"type":"Point","coordinates":[24.973,45.733]}},{"type":"Feature","properties":{"nombre":"Hungría","nombre_en":"Hungary","iso":"HUN","min_label":4,"rank":5},"geometry":{"type":"Point","coordinates":[19.448,47.087]}},{"type":"Feature","properties":{"nombre":"Eslovaquia","nombre_en":"Slovakia","iso":"SVK","min_label":4,"rank":6},"geometry":{"type":"Point","coordinates":[19.05,48.734]}},{"type":"Feature","properties":{"nombre":"Polonia","nombre_en":"Poland","iso":"POL","min_label":2.5,"rank":3},"geometry":{"type":"Point","coordinates":[19.49,51.99]}},{"type":"Feature","properties":{"nombre":"Irlanda","nombre_en":"Ireland","iso":"IRL","min_label":3,"rank":3},"geometry":{"type":"Point","coordinates":[-7.799,53.079]}},{"type":"Feature","properties":{"nombre":"Reino Unido","nombre_en":"United Kingdom","iso":"GBR","min_label":1.7,"rank":2},"geometry":{"type":"Point","coordinates":[-2.116,54.403]}},{"type":"Feature","properties":{"nombre":"Grecia","nombre_en":"Greece","iso":"GRC","min_label":2.7,"rank":3},"geometry":{"type":"Point","coordinates":[21.726,39.493]}},{"type":"Feature","properties":{"nombre":"Zambia","nombre_en":"Zambia","iso":"ZMB","min_label":3,"rank":3},"geometry":{"type":"Point","coordinates":[26.395,-14.661]}},{"type":"Feature","properties":{"nombre":"Sierra Leona","nombre_en":"Sierra Leone","iso":"SLE","min_label":4,"rank":4},"geometry":{"type":"Point","coordinates":[-11.764,8.617]}},{"type":"Feature","properties":{"nombre":"Guinea","nombre_en":"Guinea","iso":"GIN","min_label":3,"rank":3},"geometry":{"type":"Point","coordinates":[-10.016,10.619]}},{"type":"Feature","properties":{"nombre":"Liberia","nombre_en":"Liberia","iso":"LBR","min_label":4,"rank":4},"geometry":{"type":"Point","coordinates":[-9.46,6.447]}},{"type":"Feature","properties":{"nombre":"República Centroafricana","nombre_en":"Central African Rep.","iso":"CAF","min_label":4,"rank":4},"geometry":{"type":"Point","coordinates":[20.907,6.99]}},{"type":"Feature","properties":{"nombre":"Sudán","nombre_en":"Sudan","iso":"SDN","min_label":2.5,"rank":3},"geometry":{"type":"Point","coordinates":[29.261,16.331]}},{"type":"Feature","properties":{"nombre":"Yibuti","nombre_en":"Djibouti","iso":"DJI","min_label":4,"rank":5},"geometry":{"type":"Point","coordinates":[42.499,11.976]}},{"type":"Feature","properties":{"nombre":"Eritrea","nombre_en":"Eritrea","iso":"ERI","min_label":4,"rank":4},"geometry":{"type":"Point","coordinates":[38.286,15.787]}},{"type":"Feature","properties":{"nombre":"Austria","nombre_en":"Austria","iso":"AUT","min_label":3,"rank":4},"geometry":{"type":"Point","coordinates":[14.131,47.519]}},{"type":"Feature","properties":{"nombre":"Irak","nombre_en":"Iraq","iso":"IRQ","min_label":3,"rank":3},"geometry":{"type":"Point","coordinates":[43.262,33.094]}},{"type":"Feature","properties":{"nombre":"Italia","nombre_en":"Italy","iso":"ITA","min_label":2,"rank":2},"geometry":{"type":"Point","coordinates":[11.077,44.732]}},{"type":"Feature","properties":{"nombre":"Suiza","nombre_en":"Switzerland","iso":"CHE","min_label":4,"rank":4},"geometry":{"type":"Point","coordinates":[7.464,46.719]}},{"type":"Feature","properties":{"nombre":"Irán","nombre_en":"Iran","iso":"IRN","min_label":2.5,"rank":2},"geometry":{"type":"Point","coordinates":[54.931,32.166]}},{"type":"Feature","properties":{"nombre":"Países Bajos","nombre_en":"Netherlands","iso":"NLD","min_label":4,"rank":5},"geometry":{"type":"Point","coordinates":[5.611,52.422]}},{"type":"Feature","properties":{"nombre":"Liechtenstein","nombre_en":"Liechtenstein","iso":"LIE","min_label":5,"rank":6},"geometry":{"type":"Point","coordinates":[9.559,47.111]}},{"type":"Feature","properties":{"nombre":"Costa de Marfil","nombre_en":"Côte d'Ivoire","iso":"CIV","min_label":2.5,"rank":3},"geometry":{"type":"Point","coordinates":[-5.569,7.491]}},{"type":"Feature","properties":{"nombre":"Serbia","nombre_en":"Serbia","iso":"SRB","min_label":4,"rank":5},"geometry":{"type":"Point","coordinates":[20.788,44.19]}},{"type":"Feature","properties":{"nombre":"Malí","nombre_en":"Mali","iso":"MLI","min_label":3,"rank":3},"geometry":{"type":"Point","coordinates":[-2.038,18.693]}},{"type":"Feature","properties":{"nombre":"Senegal","nombre_en":"Senegal","iso":"SEN","min_label":2.7,"rank":3},"geometry":{"type":"Point","coordinates":[-14.779,15.138]}},{"type":"Feature","properties":{"nombre":"Nigeria","nombre_en":"Nigeria","iso":"NGA","min_label":1.7,"rank":2},"geometry":{"type":"Point","coordinates":[7.503,9.44]}},{"type":"Feature","properties":{"nombre":"Benín","nombre_en":"Benin","iso":"BEN","min_label":4,"rank":5},"geometry":{"type":"Point","coordinates":[2.352,10.325]}},{"type":"Feature","properties":{"nombre":"Angola","nombre_en":"Angola","iso":"AGO","min_label":3,"rank":3},"geometry":{"type":"Point","coordinates":[17.984,-12.183]}},{"type":"Feature","properties":{"nombre":"Croacia","nombre_en":"Croatia","iso":"HRV","min_label":4,"rank":6},"geometry":{"type":"Point","coordinates":[16.372,45.806]}},{"type":"Feature","properties":{"nombre":"Eslovenia","nombre_en":"Slovenia","iso":"SVN","min_label":5,"rank":6},"geometry":{"type":"Point","coordinates":[14.915,46.061]}},{"type":"Feature","properties":{"nombre":"Catar","nombre_en":"Qatar","iso":"QAT","min_label":4,"rank":5},"geometry":{"type":"Point","coordinates":[51.144,25.237]}},{"type":"Feature","properties":{"nombre":"Arabia Saudita","nombre_en":"Saudi Arabia","iso":"SAU","min_label":1.7,"rank":2},"geometry":{"type":"Point","coordinates":[44.7,23.807]}},{"type":"Feature","properties":{"nombre":"Botsuana","nombre_en":"Botswana","iso":"BWA","min_label":4,"rank":4},"geometry":{"type":"Point","coordinates":[24.179,-22.103]}},{"type":"Feature","properties":{"nombre":"Zimbabue","nombre_en":"Zimbabwe","iso":"ZWE","min_label":2.5,"rank":3},"geometry":{"type":"Point","coordinates":[29.925,-18.912]}},{"type":"Feature","properties":{"nombre":"Pakistán","nombre_en":"Pakistan","iso":"PAK","min_label":2.7,"rank":2},"geometry":{"type":"Point","coordinates":[68.546,29.328]}},{"type":"Feature","properties":{"nombre":"Bulgaria","nombre_en":"Bulgaria","iso":"BGR","min_label":4,"rank":4},"geometry":{"type":"Point","coordinates":[25.157,42.509]}},{"type":"Feature","properties":{"nombre":"Tailandia","nombre_en":"Thailand","iso":"THA","min_label":2.7,"rank":3},"geometry":{"type":"Point","coordinates":[101.073,15.46]}},{"type":"Feature","properties":{"nombre":"San Marino","nombre_en":"San Marino","iso":"SMR","min_label":5,"rank":6},"geometry":{"type":"Point","coordinates":[12.441,43.934]}},{"type":"Feature","properties":{"nombre":"Haití","nombre_en":"Haiti","iso":"HTI","min_label":4,"rank":5},"geometry":{"type":"Point","coordinates":[-72.224,19.264]}},{"type":"Feature","properties":{"nombre":"República Dominicana","nombre_en":"Dominican Rep.","iso":"DOM","min_label":4.5,"rank":5},"geometry":{"type":"Point","coordinates":[-70.654,19.104]}},{"type":"Feature","properties":{"nombre":"Chad","nombre_en":"Chad","iso":"TCD","min_label":3,"rank":3},"geometry":{"type":"Point","coordinates":[18.645,15.143]}},{"type":"Feature","properties":{"nombre":"Kuwait","nombre_en":"Kuwait","iso":"KWT","min_label":5,"rank":6},"geometry":{"type":"Point","coordinates":[47.314,29.414]}},{"type":"Feature","properties":{"nombre":"El Salvador","nombre_en":"El Salvador","iso":"SLV","min_label":5,"rank":6},"geometry":{"type":"Point","coordinates":[-88.89,13.685]}},{"type":"Feature","properties":{"nombre":"Guatemala","nombre_en":"Guatemala","iso":"GTM","min_label":3,"rank":3},"geometry":{"type":"Point","coordinates":[-90.497,14.982]}},{"type":"Feature","properties":{"nombre":"Timor Oriental","nombre_en":"Timor-Leste","iso":"TLS","min_label":4,"rank":5},"geometry":{"type":"Point","coordinates":[125.855,-8.804]}},{"type":"Feature","properties":{"nombre":"Brunéi","nombre_en":"Brunei","iso":"BRN","min_label":4,"rank":6},"geometry":{"type":"Point","coordinates":[114.552,4.448]}},{"type":"Feature","properties":{"nombre":"Mónaco","nombre_en":"Monaco","iso":"MCO","min_label":5,"rank":6},"geometry":{"type":"Point","coordinates":[7.398,43.74]}},{"type":"Feature","properties":{"nombre":"Argelia","nombre_en":"Algeria","iso":"DZA","min_label":2.5,"rank":3},"geometry":{"type":"Point","coordinates":[2.808,27.397]}},{"type":"Feature","properties":{"nombre":"Mozambique","nombre_en":"Mozambique","iso":"MOZ","min_label":3,"rank":3},"geometry":{"type":"Point","coordinates":[37.838,-13.943]}},{"type":"Feature","properties":{"nombre":"Suazilandia","nombre_en":"eSwatini","iso":"SWZ","min_label":4,"rank":4},"geometry":{"type":"Point","coordinates":[31.467,-26.534]}},{"type":"Feature","properties":{"nombre":"Burundi","nombre_en":"Burundi","iso":"BDI","min_label":4,"rank":6},"geometry":{"type":"Point","coordinates":[29.917,-3.333]}},{"type":"Feature","properties":{"nombre":"Ruanda","nombre_en":"Rwanda","iso":"RWA","min_label":3,"rank":3},"geometry":{"type":"Point","coordinates":[30.104,-1.897]}},{"type":"Feature","properties":{"nombre":"Birmania","nombre_en":"Myanmar","iso":"MMR","min_label":3,"rank":3},"geometry":{"type":"Point","coordinates":[95.804,21.574]}},{"type":"Feature","properties":{"nombre":"Bangladés","nombre_en":"Bangladesh","iso":"BGD","min_label":3,"rank":3},"geometry":{"type":"Point","coordinates":[89.685,24.215]}},{"type":"Feature","properties":{"nombre":"Andorra","nombre_en":"Andorra","iso":"AND","min_label":5,"rank":6},"geometry":{"type":"Point","coordinates":[1.539,42.548]}},{"type":"Feature","properties":{"nombre":"Afganistán","nombre_en":"Afghanistan","iso":"AFG","min_label":3,"rank":3},"geometry":{"type":"Point","coordinates":[66.497,34.164]}},{"type":"Feature","properties":{"nombre":"Montenegro","nombre_en":"Montenegro","iso":"MNE","min_label":5,"rank":6},"geometry":{"type":"Point","coordinates":[19.144,42.803]}},{"type":"Feature","properties":{"nombre":"Bosnia y Herzegovina","nombre_en":"Bosnia and Herz.","iso":"BIH","min_label":4.5,"rank":5},"geometry":{"type":"Point","coordinates":[18.068,44.091]}},{"type":"Feature","properties":{"nombre":"Uganda","nombre_en":"Uganda","iso":"UGA","min_label":3,"rank":3},"geometry":{"type":"Point","coordinates":[32.949,1.973]}},{"type":"Feature","properties":{"nombre":"Base Naval de la Bahía de Guantánamo","nombre_en":"USNB Guantanamo Bay","iso":"USG","min_label":6,"rank":10},"geometry":{"type":"Point","coordinates":[-75.117,19.918]}},{"type":"Feature","properties":{"nombre":"Cuba","nombre_en":"Cuba","iso":"CUB","min_label":2.7,"rank":3},"geometry":{"type":"Point","coordinates":[-77.976,21.334]}},{"type":"Feature","properties":{"nombre":"Honduras","nombre_en":"Honduras","iso":"HND","min_label":4.5,"rank":5},"geometry":{"type":"Point","coordinates":[-86.888,14.795]}},{"type":"Feature","properties":{"nombre":"Ecuador","nombre_en":"Ecuador","iso":"ECU","min_label":3,"rank":3},"geometry":{"type":"Point","coordinates":[-78.188,-1.259]}},{"type":"Feature","properties":{"nombre":"Colombia","nombre_en":"Colombia","iso":"COL","min_label":3,"rank":2},"geometry":{"type":"Point","coordinates":[-73.174,3.373]}},{"type":"Feature","properties":{"nombre":"Paraguay","nombre_en":"Paraguay","iso":"PRY","min_label":3,"rank":4},"geometry":{"type":"Point","coordinates":[-60.146,-21.675]}},{"type":"Feature","properties":{"nombre":"Isla Brasilera","nombre_en":"Brazilian I.","iso":"BRI","min_label":7.7,"rank":9},"geometry":{"type":"Point","coordinates":[-57.623,-30.188]}},{"type":"Feature","properties":{"nombre":"Portugal","nombre_en":"Portugal","iso":"PRT","min_label":3,"rank":2},"geometry":{"type":"Point","coordinates":[-8.272,39.607]}},{"type":"Feature","properties":{"nombre":"Moldavia","nombre_en":"Moldova","iso":"MDA","min_label":5,"rank":6},"geometry":{"type":"Point","coordinates":[28.488,47.435]}},{"type":"Feature","properties":{"nombre":"Turkmenistán","nombre_en":"Turkmenistan","iso":"TKM","min_label":3,"rank":4},"geometry":{"type":"Point","coordinates":[58.677,39.855]}},{"type":"Feature","properties":{"nombre":"Jordania","nombre_en":"Jordan","iso":"JOR","min_label":4,"rank":4},"geometry":{"type":"Point","coordinates":[36.376,30.805]}},{"type":"Feature","properties":{"nombre":"Nepal","nombre_en":"Nepal","iso":"NPL","min_label":3,"rank":3},"geometry":{"type":"Point","coordinates":[83.64,28.298]}},{"type":"Feature","properties":{"nombre":"Lesoto","nombre_en":"Lesotho","iso":"LSO","min_label":4,"rank":6},"geometry":{"type":"Point","coordinates":[28.247,-29.48]}},{"type":"Feature","properties":{"nombre":"Camerún","nombre_en":"Cameroon","iso":"CMR","min_label":3,"rank":3},"geometry":{"type":"Point","coordinates":[12.473,4.585]}},{"type":"Feature","properties":{"nombre":"Gabón","nombre_en":"Gabon","iso":"GAB","min_label":3,"rank":4},"geometry":{"type":"Point","coordinates":[11.836,-0.438]}},{"type":"Feature","properties":{"nombre":"Níger","nombre_en":"Niger","iso":"NER","min_label":3,"rank":3},"geometry":{"type":"Point","coordinates":[9.504,17.446]}},{"type":"Feature","properties":{"nombre":"Burkina Faso","nombre_en":"Burkina Faso","iso":"BFA","min_label":3,"rank":3},"geometry":{"type":"Point","coordinates":[-1.364,12.673]}},{"type":"Feature","properties":{"nombre":"Togo","nombre_en":"Togo","iso":"TGO","min_label":5,"rank":6},"geometry":{"type":"Point","coordinates":[1.058,8.807]}},{"type":"Feature","properties":{"nombre":"Ghana","nombre_en":"Ghana","iso":"GHA","min_label":2.7,"rank":3},"geometry":{"type":"Point","coordinates":[-1.037,7.718]}},{"type":"Feature","properties":{"nombre":"Guinea-Bisáu","nombre_en":"Guinea-Bissau","iso":"GNB","min_label":5,"rank":6},"geometry":{"type":"Point","coordinates":[-14.524,12.164]}},{"type":"Feature","properties":{"nombre":"Gibraltar","nombre_en":"Gibraltar","iso":"GIB","min_label":5,"rank":5},"geometry":{"type":"Point","coordinates":[-5.347,36.129]}},{"type":"Feature","properties":{"nombre":"Estados Unidos","nombre_en":"United States of America","iso":"USA","min_label":1.7,"rank":2},"geometry":{"type":"Point","coordinates":[-97.483,39.538]}},{"type":"Feature","properties":{"nombre":"Canadá","nombre_en":"Canada","iso":"CAN","min_label":1.7,"rank":2},"geometry":{"type":"Point","coordinates":[-101.911,60.324]}},{"type":"Feature","properties":{"nombre":"México","nombre_en":"Mexico","iso":"MEX","min_label":2,"rank":2},"geometry":{"type":"Point","coordinates":[-102.289,23.92]}},{"type":"Feature","properties":{"nombre":"Belice","nombre_en":"Belize","iso":"BLZ","min_label":5,"rank":6},"geometry":{"type":"Point","coordinates":[-88.713,17.202]}},{"type":"Feature","properties":{"nombre":"Panamá","nombre_en":"Panama","iso":"PAN","min_label":4,"rank":4},"geometry":{"type":"Point","coordinates":[-80.352,8.722]}},{"type":"Feature","properties":{"nombre":"Venezuela","nombre_en":"Venezuela","iso":"VEN","min_label":2.5,"rank":3},"geometry":{"type":"Point","coordinates":[-64.599,7.182]}},{"type":"Feature","properties":{"nombre":"Papúa Nueva Guinea","nombre_en":"Papua New Guinea","iso":"PNG","min_label":2.5,"rank":2},"geometry":{"type":"Point","coordinates":[143.91,-5.695]}},{"type":"Feature","properties":{"nombre":"Egipto","nombre_en":"Egypt","iso":"EGY","min_label":1.7,"rank":2},"geometry":{"type":"Point","coordinates":[29.446,26.186]}},{"type":"Feature","properties":{"nombre":"Yemen","nombre_en":"Yemen","iso":"YEM","min_label":3,"rank":3},"geometry":{"type":"Point","coordinates":[45.874,15.328]}},{"type":"Feature","properties":{"nombre":"Mauritania","nombre_en":"Mauritania","iso":"MRT","min_label":3,"rank":3},"geometry":{"type":"Point","coordinates":[-9.74,19.587]}},{"type":"Feature","properties":{"nombre":"Guinea Ecuatorial","nombre_en":"Eq. Guinea","iso":"GNQ","min_label":4,"rank":4},"geometry":{"type":"Point","coordinates":[8.99,2.333]}},{"type":"Feature","properties":{"nombre":"Gambia","nombre_en":"Gambia","iso":"GMB","min_label":5,"rank":6},"geometry":{"type":"Point","coordinates":[-14.998,13.642]}},{"type":"Feature","properties":{"nombre":"Hong Kong","nombre_en":"Hong Kong","iso":"HKG","min_label":4,"rank":4},"geometry":{"type":"Point","coordinates":[114.098,22.449]}},{"type":"Feature","properties":{"nombre":"Ciudad del Vaticano","nombre_en":"Vatican","iso":"VAT","min_label":5,"rank":6},"geometry":{"type":"Point","coordinates":[12.453,41.903]}},{"type":"Feature","properties":{"nombre":"República Turca del Norte de Chipre","nombre_en":"N. Cyprus","iso":"CYN","min_label":6,"rank":6},"geometry":{"type":"Point","coordinates":[33.692,35.216]}},{"type":"Feature","properties":{"nombre":"Línea Verde","nombre_en":"Cyprus U.N. Buffer Zone","iso":"CNM","min_label":7.7,"rank":9},"geometry":{"type":"Point","coordinates":[33.288,35.141]}},{"type":"Feature","properties":{"nombre":"Glaciar de Siachen","nombre_en":"Siachen Glacier","iso":"KAS","min_label":6.5,"rank":5},"geometry":{"type":"Point","coordinates":[77.13,35.341]}},{"type":"Feature","properties":{"nombre":"Baikonur","nombre_en":"Baikonur","iso":"KAB","min_label":6,"rank":5},"geometry":{"type":"Point","coordinates":[63.384,45.978]}},{"type":"Feature","properties":{"nombre":"Akrotiri","nombre_en":"Akrotiri","iso":"WSB","min_label":6.5,"rank":3},"geometry":{"type":"Point","coordinates":[32.979,34.601]}},{"type":"Feature","properties":{"nombre":"Campo de hielo Patagónico Sur","nombre_en":"Southern Patagonian Ice Field","iso":"SPI","min_label":7.7,"rank":9},"geometry":{"type":"Point","coordinates":[-73.314,-49.511]}},{"type":"Feature","properties":{"nombre":"Bir Tawil","nombre_en":"Bir Tawil","iso":"BRT","min_label":7,"rank":8},"geometry":{"type":"Point","coordinates":[33.673,21.86]}},{"type":"Feature","properties":{"nombre":"Antártida","nombre_en":"Antarctica","iso":"ATA","min_label":4,"rank":4},"geometry":{"type":"Point","coordinates":[35.885,-79.843]}},{"type":"Feature","properties":{"nombre":"Australia","nombre_en":"Australia","iso":"AUS","min_label":1.7,"rank":2},"geometry":{"type":"Point","coordinates":[134.05,-24.13]}},{"type":"Feature","properties":{"nombre":"Groenlandia","nombre_en":"Greenland","iso":"GRL","min_label":1.7,"rank":3},"geometry":{"type":"Point","coordinates":[-39.335,74.319]}},{"type":"Feature","properties":{"nombre":"Fiyi","nombre_en":"Fiji","iso":"FJI","min_label":3,"rank":6},"geometry":{"type":"Point","coordinates":[177.975,-17.826]}},{"type":"Feature","properties":{"nombre":"Nueva Zelanda","nombre_en":"New Zealand","iso":"NZL","min_label":2,"rank":2},"geometry":{"type":"Point","coordinates":[172.787,-39.759]}},{"type":"Feature","properties":{"nombre":"Nueva Caledonia","nombre_en":"New Caledonia","iso":"NCL","min_label":4.6,"rank":3},"geometry":{"type":"Point","coordinates":[165.084,-21.065]}},{"type":"Feature","properties":{"nombre":"Madagascar","nombre_en":"Madagascar","iso":"MDG","min_label":2.7,"rank":3},"geometry":{"type":"Point","coordinates":[46.704,-18.628]}},{"type":"Feature","properties":{"nombre":"Filipinas","nombre_en":"Philippines","iso":"PHL","min_label":2.5,"rank":2},"geometry":{"type":"Point","coordinates":[122.465,11.198]}},{"type":"Feature","properties":{"nombre":"Sri Lanka","nombre_en":"Sri Lanka","iso":"LKA","min_label":3,"rank":3},"geometry":{"type":"Point","coordinates":[80.705,7.581]}},{"type":"Feature","properties":{"nombre":"Curazao","nombre_en":"Curaçao","iso":"CUW","min_label":5,"rank":5},"geometry":{"type":"Point","coordinates":[-68.921,12.145]}},{"type":"Feature","properties":{"nombre":"Aruba","nombre_en":"Aruba","iso":"ABW","min_label":5,"rank":5},"geometry":{"type":"Point","coordinates":[-69.973,12.517]}},{"type":"Feature","properties":{"nombre":"Bahamas","nombre_en":"Bahamas","iso":"BHS","min_label":4,"rank":4},"geometry":{"type":"Point","coordinates":[-77.147,26.402]}},{"type":"Feature","properties":{"nombre":"Islas Turcas y Caicos","nombre_en":"Turks and Caicos Is.","iso":"TCA","min_label":5,"rank":6},"geometry":{"type":"Point","coordinates":[-71.753,21.817]}},{"type":"Feature","properties":{"nombre":"República de China","nombre_en":"Taiwan","iso":"TWN","min_label":4.5,"rank":3},"geometry":{"type":"Point","coordinates":[120.868,23.652]}},{"type":"Feature","properties":{"nombre":"Japón","nombre_en":"Japan","iso":"JPN","min_label":1.7,"rank":2},"geometry":{"type":"Point","coordinates":[138.442,36.143]}},{"type":"Feature","properties":{"nombre":"San Pedro y Miquelón","nombre_en":"St. Pierre and Miquelon","iso":"SPM","min_label":5,"rank":4},"geometry":{"type":"Point","coordinates":[-56.332,47.04]}},{"type":"Feature","properties":{"nombre":"Islandia","nombre_en":"Iceland","iso":"ISL","min_label":2,"rank":3},"geometry":{"type":"Point","coordinates":[-18.674,64.779]}},{"type":"Feature","properties":{"nombre":"Islas Pitcairn","nombre_en":"Pitcairn Is.","iso":"PCN","min_label":5,"rank":4},"geometry":{"type":"Point","coordinates":[-128.318,-24.365]}},{"type":"Feature","properties":{"nombre":"Polinesia Francesa","nombre_en":"Fr. Polynesia","iso":"PYF","min_label":3.5,"rank":4},"geometry":{"type":"Point","coordinates":[-149.462,-17.628]}},{"type":"Feature","properties":{"nombre":"Tierras Australes y Antárticas Francesas","nombre_en":"Fr. S. Antarctic Lands","iso":"ATF","min_label":4,"rank":6},"geometry":{"type":"Point","coordinates":[69.122,-49.304]}},{"type":"Feature","properties":{"nombre":"Seychelles","nombre_en":"Seychelles","iso":"SYC","min_label":5,"rank":6},"geometry":{"type":"Point","coordinates":[55.48,-4.677]}},{"type":"Feature","properties":{"nombre":"Kiribati","nombre_en":"Kiribati","iso":"KIR","min_label":5,"rank":6},"geometry":{"type":"Point","coordinates":[-157.385,1.82]}},{"type":"Feature","properties":{"nombre":"Islas Marshall","nombre_en":"Marshall Is.","iso":"MHL","min_label":5,"rank":6},"geometry":{"type":"Point","coordinates":[171.194,7.083]}},{"type":"Feature","properties":{"nombre":"Trinidad y Tobago","nombre_en":"Trinidad and Tobago","iso":"TTO","min_label":4.5,"rank":5},"geometry":{"type":"Point","coordinates":[-60.918,10.999]}},{"type":"Feature","properties":{"nombre":"Granada","nombre_en":"Grenada","iso":"GRD","min_label":4,"rank":6},"geometry":{"type":"Point","coordinates":[-61.68,12.113]}},{"type":"Feature","properties":{"nombre":"San Vicente y las Granadinas","nombre_en":"St. Vin. and Gren.","iso":"VCT","min_label":5,"rank":6},"geometry":{"type":"Point","coordinates":[-61.336,13.088]}},{"type":"Feature","properties":{"nombre":"Barbados","nombre_en":"Barbados","iso":"BRB","min_label":4.5,"rank":5},"geometry":{"type":"Point","coordinates":[-59.569,13.164]}},{"type":"Feature","properties":{"nombre":"Santa Lucía","nombre_en":"Saint Lucia","iso":"LCA","min_label":5,"rank":6},"geometry":{"type":"Point","coordinates":[-60.98,13.892]}},{"type":"Feature","properties":{"nombre":"Dominica","nombre_en":"Dominica","iso":"DMA","min_label":4,"rank":6},"geometry":{"type":"Point","coordinates":[-61.345,15.459]}},{"type":"Feature","properties":{"nombre":"Islas ultramarinas de Estados Unidos","nombre_en":"U.S. Minor Outlying Is.","iso":"UMI","min_label":7,"rank":5},"geometry":{"type":"Point","coordinates":[166.645,19.286]}},{"type":"Feature","properties":{"nombre":"Montserrat","nombre_en":"Montserrat","iso":"MSR","min_label":5,"rank":6},"geometry":{"type":"Point","coordinates":[-62.188,16.737]}},{"type":"Feature","properties":{"nombre":"Antigua y Barbuda","nombre_en":"Antigua and Barb.","iso":"ATG","min_label":5,"rank":6},"geometry":{"type":"Point","coordinates":[-61.791,17.352]}},{"type":"Feature","properties":{"nombre":"San Cristóbal y Nieves","nombre_en":"St. Kitts and Nevis","iso":"KNA","min_label":5,"rank":6},"geometry":{"type":"Point","coordinates":[-62.758,17.337]}},{"type":"Feature","properties":{"nombre":"Islas Vírgenes de los Estados Unidos","nombre_en":"U.S. Virgin Is.","iso":"VIR","min_label":5,"rank":6},"geometry":{"type":"Point","coordinates":[-64.779,17.747]}},{"type":"Feature","properties":{"nombre":"San Bartolomé","nombre_en":"St-Barthélemy","iso":"BLM","min_label":5.7,"rank":6},"geometry":{"type":"Point","coordinates":[-62.833,17.902]}},{"type":"Feature","properties":{"nombre":"Puerto Rico","nombre_en":"Puerto Rico","iso":"PRI","min_label":3,"rank":5},"geometry":{"type":"Point","coordinates":[-66.481,18.235]}},{"type":"Feature","properties":{"nombre":"Anguila","nombre_en":"Anguilla","iso":"AIA","min_label":5,"rank":6},"geometry":{"type":"Point","coordinates":[-63.026,18.243]}},{"type":"Feature","properties":{"nombre":"Islas Vírgenes Británicas","nombre_en":"British Virgin Is.","iso":"VGB","min_label":5,"rank":6},"geometry":{"type":"Point","coordinates":[-64.637,18.427]}},{"type":"Feature","properties":{"nombre":"Jamaica","nombre_en":"Jamaica","iso":"JAM","min_label":4,"rank":4},"geometry":{"type":"Point","coordinates":[-77.319,18.137]}},{"type":"Feature","properties":{"nombre":"Islas Caimán","nombre_en":"Cayman Is.","iso":"CYM","min_label":5,"rank":5},"geometry":{"type":"Point","coordinates":[-81.241,19.32]}},{"type":"Feature","properties":{"nombre":"Bermudas","nombre_en":"Bermuda","iso":"BMU","min_label":4,"rank":6},"geometry":{"type":"Point","coordinates":[-64.764,32.297]}},{"type":"Feature","properties":{"nombre":"Islas Heard y McDonald","nombre_en":"Heard I. and McDonald Is.","iso":"HMD","min_label":4.5,"rank":5},"geometry":{"type":"Point","coordinates":[73.505,-53.103]}},{"type":"Feature","properties":{"nombre":"Isla Santa Elena","nombre_en":"Saint Helena","iso":"SHN","min_label":5,"rank":6},"geometry":{"type":"Point","coordinates":[-5.713,-15.95]}},{"type":"Feature","properties":{"nombre":"Mauricio","nombre_en":"Mauritius","iso":"MUS","min_label":4,"rank":5},"geometry":{"type":"Point","coordinates":[57.566,-20.3]}},{"type":"Feature","properties":{"nombre":"Comoras","nombre_en":"Comoros","iso":"COM","min_label":4,"rank":6},"geometry":{"type":"Point","coordinates":[43.318,-11.728]}},{"type":"Feature","properties":{"nombre":"Santo Tomé y Príncipe","nombre_en":"São Tomé and Principe","iso":"STP","min_label":5,"rank":6},"geometry":{"type":"Point","coordinates":[7.021,0.971]}},{"type":"Feature","properties":{"nombre":"Cabo Verde","nombre_en":"Cabo Verde","iso":"CPV","min_label":4,"rank":4},"geometry":{"type":"Point","coordinates":[-23.639,15.075]}},{"type":"Feature","properties":{"nombre":"Malta","nombre_en":"Malta","iso":"MLT","min_label":4,"rank":5},"geometry":{"type":"Point","coordinates":[14.433,35.893]}},{"type":"Feature","properties":{"nombre":"Jersey","nombre_en":"Jersey","iso":"JEY","min_label":5,"rank":6},"geometry":{"type":"Point","coordinates":[-2.09,49.221]}},{"type":"Feature","properties":{"nombre":"Guernsey","nombre_en":"Guernsey","iso":"GGY","min_label":5,"rank":6},"geometry":{"type":"Point","coordinates":[-2.562,49.464]}},{"type":"Feature","properties":{"nombre":"Isla de Man","nombre_en":"Isle of Man","iso":"IMN","min_label":5,"rank":6},"geometry":{"type":"Point","coordinates":[-4.53,54.221]}},{"type":"Feature","properties":{"nombre":"Åland","nombre_en":"Åland","iso":"ALA","min_label":5,"rank":6},"geometry":{"type":"Point","coordinates":[19.87,60.156]}},{"type":"Feature","properties":{"nombre":"Islas Feroe","nombre_en":"Faeroe Is.","iso":"FRO","min_label":4,"rank":6},"geometry":{"type":"Point","coordinates":[-7.058,62.186]}},{"type":"Feature","properties":{"nombre":"Territorios Australianos del Océano Índico","nombre_en":"Indian Ocean Ter.","iso":"IOA","min_label":5,"rank":5},"geometry":{"type":"Point","coordinates":[105.673,-10.491]}},{"type":"Feature","properties":{"nombre":"Territorio Británico del Océano Índico","nombre_en":"Br. Indian Ocean Ter.","iso":"IOT","min_label":5,"rank":5},"geometry":{"type":"Point","coordinates":[71.348,-6.191]}},{"type":"Feature","properties":{"nombre":"Singapur","nombre_en":"Singapore","iso":"SGP","min_label":4,"rank":6},"geometry":{"type":"Point","coordinates":[103.817,1.367]}},{"type":"Feature","properties":{"nombre":"Isla Norfolk","nombre_en":"Norfolk Island","iso":"NFK","min_label":4.5,"rank":5},"geometry":{"type":"Point","coordinates":[167.955,-29.033]}},{"type":"Feature","properties":{"nombre":"Islas Cook","nombre_en":"Cook Is.","iso":"COK","min_label":4,"rank":4},"geometry":{"type":"Point","coordinates":[-159.786,-21.216]}},{"type":"Feature","properties":{"nombre":"Tonga","nombre_en":"Tonga","iso":"TON","min_label":4,"rank":4},"geometry":{"type":"Point","coordinates":[-175.163,-21.21]}},{"type":"Feature","properties":{"nombre":"Wallis y Futuna","nombre_en":"Wallis and Futuna Is.","iso":"WLF","min_label":4.7,"rank":4},"geometry":{"type":"Point","coordinates":[-178.137,-14.286]}},{"type":"Feature","properties":{"nombre":"Samoa","nombre_en":"Samoa","iso":"WSM","min_label":3,"rank":4},"geometry":{"type":"Point","coordinates":[-172.438,-13.639]}},{"type":"Feature","properties":{"nombre":"Islas Salomón","nombre_en":"Solomon Is.","iso":"SLB","min_label":3,"rank":3},"geometry":{"type":"Point","coordinates":[159.17,-8.03]}},{"type":"Feature","properties":{"nombre":"Tuvalu","nombre_en":"Tuvalu","iso":"TUV","min_label":5,"rank":6},"geometry":{"type":"Point","coordinates":[179.21,-8.514]}},{"type":"Feature","properties":{"nombre":"Maldivas","nombre_en":"Maldives","iso":"MDV","min_label":4,"rank":5},"geometry":{"type":"Point","coordinates":[73.508,4.174]}},{"type":"Feature","properties":{"nombre":"Nauru","nombre_en":"Nauru","iso":"NRU","min_label":5,"rank":6},"geometry":{"type":"Point","coordinates":[166.933,-0.52]}},{"type":"Feature","properties":{"nombre":"Estados Federados de Micronesia","nombre_en":"Micronesia","iso":"FSM","min_label":5,"rank":6},"geometry":{"type":"Point","coordinates":[158.234,6.888]}},{"type":"Feature","properties":{"nombre":"Islas Georgias del Sur y Sandwich del Sur","nombre_en":"S. Geo. and the Is.","iso":"SGS","min_label":5,"rank":4},"geometry":{"type":"Point","coordinates":[-31.063,-55.683]}},{"type":"Feature","properties":{"nombre":"Islas Malvinas","nombre_en":"Falkland Is.","iso":"FLK","min_label":4.5,"rank":5},"geometry":{"type":"Point","coordinates":[-58.739,-51.609]}},{"type":"Feature","properties":{"nombre":"Vanuatu","nombre_en":"Vanuatu","iso":"VUT","min_label":4,"rank":4},"geometry":{"type":"Point","coordinates":[166.909,-15.372]}},{"type":"Feature","properties":{"nombre":"Niue","nombre_en":"Niue","iso":"NIU","min_label":4,"rank":4},"geometry":{"type":"Point","coordinates":[-169.863,-19.046]}},{"type":"Feature","properties":{"nombre":"Samoa Estadounidense","nombre_en":"American Samoa","iso":"ASM","min_label":4,"rank":4},"geometry":{"type":"Point","coordinates":[-170.747,-14.327]}},{"type":"Feature","properties":{"nombre":"Palaos","nombre_en":"Palau","iso":"PLW","min_label":5,"rank":6},"geometry":{"type":"Point","coordinates":[134.58,7.518]}},{"type":"Feature","properties":{"nombre":"Guam","nombre_en":"Guam","iso":"GUM","min_label":3,"rank":6},"geometry":{"type":"Point","coordinates":[144.704,13.354]}},{"type":"Feature","properties":{"nombre":"Islas Marianas del Norte","nombre_en":"N. Mariana Is.","iso":"MNP","min_label":5,"rank":6},"geometry":{"type":"Point","coordinates":[145.734,15.188]}},{"type":"Feature","properties":{"nombre":"Baréin","nombre_en":"Bahrain","iso":"BHR","min_label":4,"rank":4},"geometry":{"type":"Point","coordinates":[50.555,26.056]}},{"type":"Feature","properties":{"nombre":"islas del mar del Coral","nombre_en":"Coral Sea Is.","iso":"CSI","min_label":4.5,"rank":5},"geometry":{"type":"Point","coordinates":[154.391,-21.029]}},{"type":"Feature","properties":{"nombre":"Isla Wake","nombre_en":"Spratly Is.","iso":"PGA","min_label":6,"rank":6},"geometry":{"type":"Point","coordinates":[115.82,10.73]}},{"type":"Feature","properties":{"nombre":"Isla Clipperton","nombre_en":"Clipperton I.","iso":"CLP","min_label":5,"rank":5},"geometry":{"type":"Point","coordinates":[-109.22,10.297]}},{"type":"Feature","properties":{"nombre":"Macao","nombre_en":"Macao","iso":"MAC","min_label":4,"rank":4},"geometry":{"type":"Point","coordinates":[113.556,22.13]}},{"type":"Feature","properties":{"nombre":"Islas Ashmore y Cartier","nombre_en":"Ashmore and Cartier Is.","iso":"ATC","min_label":4.5,"rank":5},"geometry":{"type":"Point","coordinates":[123.586,-12.433]}},{"type":"Feature","properties":{"nombre":"Bajo Nuevo","nombre_en":"Bajo Nuevo Bank","iso":"BJN","min_label":7,"rank":8},"geometry":{"type":"Point","coordinates":[-79.846,15.792]}},{"type":"Feature","properties":{"nombre":"Isla Serranilla","nombre_en":"Serranilla Bank","iso":"SER","min_label":7,"rank":5},"geometry":{"type":"Point","coordinates":[-78.638,15.864]}},{"type":"Feature","properties":{"nombre":"Bajo de Masinloc","nombre_en":"Scarborough Reef","iso":"SCR","min_label":6,"rank":6},"geometry":{"type":"Point","coordinates":[117.754,15.152]}}]}